ID,Name1,Name2,Name3,Street1,Street2,City,State,Zipcode,Country
9530,28msec,Inc.,,,,,,,
5613,28msec Inc.,,,,,Zurich,,,Switzerland
581,École Normale Supérieure de Paris,,,,,,,,France
2927,École Polytechnique Fédérale de Lausanne,,,,,Lausanne,,,Switzerland
3133,École Polytechnique Fédérale de Lausanne,,,,,,,,Switzerland
7569,Aalborg Univ.,,,,,,,,
7608,Aalborg Univ.,,,,,Aalborg,,,The Netherlands
946,Aalborg University,,,,,,,,
2336,Aalborg University,,,,,Aalborg,,,Denmark
2367,Aalborg University,,,,,,,,Denmark
8298,Aalborg University,Ost,,Denmark,,,,,Denmark
651,Advanced Data Management Technologies Laboratory,Department of Computer Science,University of Pittsburgh,,,Pittsburgh,PA,,
7572,Agricultural Univ. of Athens,,,,,,,,
8865,Alma Mater Studiorum—Università di Bologna,,,,,Bologna,,,Italy
8445,Almaden,,,,,,,,
5887,Almaden Research Center,,,,,San Jose,CA,,USA
672,Amazon Corp.,,,,,Seattle,,,
8128,Amazon.com,,,,,Seattle,,,
8425,Applications Research Laboratory,Corporate Technology Group,Intel Corporation,,,,,,USA
3893,Aristotle University,Thessaloniki,,,,,,,Greece
2341,Arizona State Univ.,,,,,Tempe,AZ,,
2634,Arizona State University,,,,,,,,
494,Arizona State University,,,,,,Arizona,,
2385,Arizona State University,,,,,Tempe,AZ,,
5629,Arizona State University,,,,,Tempe,AZ,,USA
9469,Arizona State University,,,,,Tempe,,,USA
3068,Aster Data,,,,,,,,
9563,Aster Data Systems,,,,,,,,
5130,ASU,,,,,Tempe,AZ,,
4046,AT & T Labs-Research,,,,,,,,
4168,AT & T Labs-Research,,,,,Florham Park,NJ,,
9264,AT & T Labs-Research,,,,,Florham Park,,7932,USA
3435,AT&T,,,,,,,,
6808,AT&T Laboratories,,,,,,,,
6259,AT&T Laboratories - Research,,,,,Florham Park,NJ,,USA
1635,AT&T Labs,,,,,,,,
7761,AT&T Labs,,,Bldg 103,180 Park Avenue,Florham Park,NJ,7932,
9240,AT&T Labs,,,,,Florham Park,NJ,,
6156,AT&T Labs,,,,,Florham Park,NJ,,USA
6764,AT&T Labs,Research,,,,,,,
1702,AT&T Labs - Research,,,,,,,,
4264,AT&T Labs - Research,,,,,Florham Park,NJ,,
5865,AT&T Labs - Research,,,,,Florham Park,NJ,,USA
7429,AT&T Labs -- Research,,,,,,,,
2240,AT&T Labs Inc.,,,,,,,,
6367,AT&T Labs Inc. - Research,,,,,Florham Park,NJ,,USA
454,AT&T Labs Research,,,,,,,,
7730,AT&T Labs Research,,,Room E243,180 Park Avenue,Florham Park,NJ,7932,USA
7699,AT&T Labs Research,,,,,Florham Park,N.J.,,USA
1072,AT&T Labs Research,,,,,Florham Park,NJ,,
5996,AT&T Labs Research,,,,,Florham Park,NJ,,USA
7733,AT&T Labs Research,,,,,,,,
9400,AT&T Labs&mdash;&#8212;Research,,,,,Florham Park,NJ,,
7624,AT&T Labs?Research,,,,,,,,
103,AT&T Labs-Research,,,,,,,,
7737,AT&T Labs-Research,,,Room E 233,180 Park Ave.,Florham Park,NJ,07932-0971,USA
7710,AT&T Labs-Research,,,Bldg. 103,180 Park Avenue,Florham Park,NJ,7932,USA
8948,AT&T Labs-Research,,,,,Florham Park,NJ,,
2964,AT&T Labs-Research,,,,,Florham Park,NJ,,
5773,AT&T Labs-Research,,,,,,NJ,,USA
1456,AT&T Labs-Research,,,,,,NJ,,
8577,AT&T Labs-Research,,,,,,,,USA
3142,AT&T Labs--Research,,,,,,,,
3117,AT&T Labs--Research,,,,,Florham Park,NJ,,
8034,AT&T Labs--Research,,,,,,NJ,,
8024,AT&T Labs--Research,,,,,,,,USA
7080,AT&T Labs---Research,,,,,,,,
7659,AT&T Labs---Research,,,,,Florham Park,NJ,,
7112,AT&T Research,,,,,,,,
7105,AT&T Research Laboratory,,,,,Florham Park,NJ,,
3074,Athens Univ. of Economics and Business,,,,,,,,
7952,Athens University of Economics and Business,,,76 Patision Street,,Athens,,,Greece
5179,Athens University of Economics and Business,,,,,Athens,,,Greece
2494,Athens University of Economics and Business,,,,,,,,Greece
5204,ATT Labs - Research,,,,,Florham Park,NJ,,
1854,Basic Research Unit,Helsinki Institute for Information Technology,Department of Computer Science,University of Helsinki,,,,,Finland
1140,Bayerisches Forschungszentrum für Wissensbasierte Systeme,Orleansstrá,,,,München,,,Germany
3653,BEA Systems,,,,,,,,
2587,BEA Systems,Inc,,,,San Jose,,,
2465,BEA Systems,Inc.,,,,,,,
1224,BEA Systems,Inc.,,,,,,,
4616,BEA Systems,Inc.,,,,Burlington,MA,,
5337,BEA Systems,Inc.,,,,San Francisco,CA,,
799,BEA Systems,Inc.,,,,San Jose,CA,,
804,BEA Systems,Inc.,,,,San Jose,CA,,
4627,BEA Systems,,,,,Liberty Corner,NJ,,
9233,BEA Systems,,,,,Redwood Shores,CA,,
4629,BEA Systems,,,,,San Francisco,CA,,
1583,BEA Systems,,,,,San Jose,CA,,
1585,BEA Systems,,,,,San Jose,CA,,
8070,BEA Systems,,,,,,,,USA
6321,BEA Systems Inc,,,,,San Jose,CA,,USA
4236,BEA Systems. Inc.,,,,,San Francisco,CA,,
3,Bell Laboratories,,,,,,,,
6511,Bell Laboratories,,,600 Mountain Avenue,,Murray Hill,NJ,,
7861,Bell Laboratories,,,600 Mountain Avenue,,Murray Hill,NJ,7974,USA
5671,Bell Laboratories,Alcatel-Lucent,Lisle,,,,IL,,USA
22,Bell Laboratories,Lucent Technologies,,,,,,,
7913,Bell Laboratories,Lucent Technologies,,600 Mountain Ave.,,Murray Hill,NJ,7974,USA
7717,Bell Laboratories,Lucent Technologies,,600 Mountain Ave.,,,NJ,7974,USA
7320,Bell Laboratories,Lucent Technologies,,,,Murray Hill,NJ,,
8098,Bell Laboratories,Lucent Technologies,,,,,,,USA
6586,Bell Laboratories,,,,,Murray Hill,NJ,,
100,Bell Laboratories (India),,,,,,,,
455,Bell Labs,,,,,,,,
2246,Bell Labs,Alcatel-Lucent,,,,,,,
7007,Bell Labs,Lucent,,,,,,,
1,Bell Labs,Lucent Technologies,,,,,,,
7120,Bell Labs,Lucent Technologies Murray Hill,,,,Murray Hill,NJ,,
7999,Bell Labs,Lucent Technologies,,,,Murray Hill,New Jersey,,
8206,Bell Labs,Lucent Technologies,,,,Murray Hill,NJ,,
6487,Bell Labs,,,,,Murray Hill,NJ,,
4330,Bell Labs Research,,,,,,,,
5655,Bell Labs Research,,,,,Bangalore,,,India
5591,Bell Labs Research India,,,,,,,,India
6538,Bell Labs.,,,,,,,,
4052,Berufsakademie Stuttgart/IBM Germany,,,,,,,,
8106,Bilkent University,,,,,Ankara,,,Turkey
8108,Bilkent University,Bursa,,,,,,,Turkey
321,Biological Data Management and Technology Center,,,,,Berkeley,CA,,
4246,Boeing Phantom Works,,,,,,,,
257,Boston University,,,,,,,,
2331,Boston University,,,,,Boston,MA,,
5642,Boston University,,,,,Boston,MA,,USA
9373,Boston University,,,,,Boston,,,USA
9383,Boston University,,,,,Boston,,2215,USA
1009,Brandeis University,,,,,,,,
155,Brandeis University,,,,,Waltham,MA,,
5706,Brandeis University,,,,,Waltham,MA,,USA
9625,Brown U,,,,,,,,
736,Brown University,,,,,,,,
164,Brown University,,,,,Providence,RI,,
5999,Brown University,,,,,Providence,RI,,USA
4644,Brown University,,,,,Providence,RI.,,
7777,C&C Research Laboratories,NEC USA,,110 Rio Robles,M/S SJ100,San Jose,CA,95134,USA
6883,C&C Research Laboratories,NEC,Inc.,110 Rio Robles,,San Jose,CA,,
1098,C&C Research Laboratories - Silicon Valley,NEC USA,INC.,,,Cupertino,California,,
1244,C&C Research Laboratories - Silicon Valley,NEC USA,Inc.,Suite,,Cupertino,California,,
9063,C.M.U.,,,,,,,,
233,Carnegie Mellon University,,,,,,,,
9792,Carnegie Mellon University,,,5000 Forbes Ave.,,Pittsburgh,PA,15213,USA
9040,Carnegie Mellon University,Akamai Technologies,,,,,,,
9039,Carnegie Mellon University,EPFL,,,,,,,
9041,Carnegie Mellon University,Intel Research Pittsburgh,,,,,,,
4139,Carnegie Mellon University,,,,,Pittsburgh,,,
18,Carnegie Mellon University,,,,,Pittsburgh,PA,,
5598,Carnegie Mellon University,,,,,Pittsburgh,PA,,USA
896,Carnegie Mellon University,,,,,Pittsburgh,Pennsylvania,,
8064,Carnegie Mellon University,,,,,,,,USA
32,Case Western Reserve University,,,,,Cleveland,OH,,
9413,Cedric,CNAM,,,,Paris,,,France
7680,Cedric/CNAM Paris,,,,,,,,France
1651,Cedric-CNAM,,,,,,,,
2691,CEDRIC-CNAM Paris,,,,,,,,France
1416,Center for Adv. Compu. Studies,Univ. of Louisiana at Lafayette,,LA,,Lafayette,,,
8057,Center for Advanced Computer Studies,University of Illinois at Chicago,,,,,,,USA
9428,Center for Comprehensive Informatics,Emory University,,,,Atlanta,,30322,USA
883,Center for Research in Biological System,University of California,,,,San Diego,CA,,
2224,Centrum voor Wiskunde en Informatica,,,,,Amsterdam,,,the Netherlands
7082,Centrum voor Wiskunde en Informatica,,,Kruislaan 413,,Amsterdam,SJ,1098,The Netherlands
2408,Centrum voor Wiskunde en Informatica,SJ Amsterdam,,,,,,,The Netherlands
6118,Centrum Wiskunde en Informatica,,,,,Amsterdam,,,Netherlands
2095,CERIA Lab.,Université Paris Dauphine,,,,,,,France
8769,CERIAS and Department of Computer Science,Purdue University,,,,West Lafayette,,,USA
7156,CERN,,,,,,,,
1027,CES Dept.,UC Riverside,,,,,,,
9001,Chinese Academy of Sciences,,,,,,,,
2583,Chinese Academy of Sciences,,,,,Beijing,,,China
9641,Chinese Academy of Sciences,,,,,,,,China
3308,Chinese University of Hong Kong,,,,,,,,
8992,Chinese university of Hong Kong,,,,,,Hong Kong,,China
5280,Chinese University of Hong Kong,,,,,,Hong Kong,,
3223,Chinese University of Hong Kong,,,,,,Hong Kong,,New Territories
9136,Chinese University of Hong Kong,,,,,Sha Tin,Hong Kong,,New Territories
3905,Chutney Technologies,,,,,,,,
8037,Chutney Technologies,,,,,Atlanta,GA,,
6972,Chutney Technologies,Inc.,,,,Atlanta,GA,,
7795,CIMIC and MSIS Department,Rutgers University,,180 University Avenue,,Newark,NJ,7102,USA
1348,CIS Department,Polytechnic University,,,,Brooklyn,NY,,
763,CISE Department,University of Florida,,,,Gainesville,FL,,
4814,City University of Hong Kong,,,,,,,,
75,City University of Hong Kong,,,,,,Hong Kong,,
7890,City University of Hong Kong,,,,,,Hong Kong,,China
9292,City University of Hong Kong,,,,,Kowloon,Hong Kong,,
9284,Clausthal University of Technology,,,,,Clausthal-Zellerfeld,,,Germany
3487,Clustra,,,,,Trondheim,,,Norway
3862,Clustra AS,,,,,,,,
3406,CMU,,,,,,,,
3561,CNAM,,,,,,,,
2872,CNAM,,,,,,,,France
3763,CNAM Paris,,,,,,,,
7938,College of Business Administration,University of Cincinnati,,,,,,,
691,College of Computer and Information Science,Northeastern University,,,,Boston,MA,,
8176,College of Computer and Information Science,Northeastern University,,,,,,,USA
6634,College of Computing,Georgia Institute of Technology,,,,,,,
7960,College of Computing,Georgia Institute of Technology,,801 Atlantic Drive,,Atlanta,GA,30332-0280,USA
8587,College of Computing,Georgia Institute of Technology,,,,Atlanta,,,USA
1211,College of Engineering,School of Computer Engineering,Nanyang Technological University,,,,,,Singapore
7880,College of Information Science and Technology,Drexel University,,3141 Chestnut Street,PA 19104-2875,Philadelphia,,,USA
1161,College of Information Science and Technology,Drexel University,,,,Philadelphia,Pennsylvania,,
8545,College of Information Science and Technology,Drexel University,,,,Philadelphia,,19104,USA
861,College of Information Sciences and Technology,The Pennsylvania State University,University Park,,,,PA,,
865,College of Information Sciences and Technology,The Pennsylvania State University,,,,University Park,PA,,
12,Columbia University,,,,,,,,
9237,Columbia University,,,,,,New York,,
8004,Columbia University,,,,,,New York,,
479,Columbia University,,,,,,NY,,
6026,Columbia University,,,,,,NY,,USA
2935,Columbia University,,,,,NYC,NY,,
968,Comp. Eng. Dept,Bilkent University,,,,Ankara,,,Turkey
1503,Comp. Sci. Div,Dept EECS,UC Berkeley,,,Berkeley,CA,,
3497,Compaq,,,,,,Il,,USA
6483,Compaq SRC,,,,,Palo Alto,CA,,
7580,Compaq Systems Research Center,,,,,,,,
6752,Computer & Information Science Department,University of Pennsylvania,,200 South 33rd Street,,Philadelphia,PA,,
8795,Computer and Information Science and Engineering,University of Florida,,,,Gainesville,,32611,USA
9267,Computer and Information Science and Engineering Department,University of Florida,,,,Gainesville,,32611,USA
7881,Computer Engineering and Informatics,University of Patras,,,,,,,Greece
1925,Computer Laboratory,University of Cambridge,,,,,,,
1812,Computer Science,Department Hong Kong Univ. of Science and Technology,,,,,Hong Kong,,
1126,Computer Science & Engineering,Indian Institute of Technology,,,,Mumbai,,,India
2075,Computer Science & Engineering Department,University of California,,Riverside,,Riverside,CA,,
2176,Computer Science and Artificial Intelligence Lab.,Massachusetts Institute of Technology,,,,,,,
6477,Computer Science and Engg.,Tndian Institiue of Technology,,,,Mumbai,,400076,INDIA
1292,Computer Science and Engg. Dept.,I.I.T.,,,,Bombay,,,
8868,Computer Science and Engineering,Arizona State University,,,,Tempe,,,USA
7744,Computer Science and Engineering Department,Arizona State University,,AZ 85287-5406,USA,Tempe,,,
8823,Computer Science and Engineering Department,State University of New York at Buffalo,,,,Amherst,,14260,USA
7892,Computer Science and Engineering Department,University of California,,,,Riverside,CA,,
8338,Computer Science Department,Boston University,,,,,,,USA
1824,Computer Science Department,Brown University,,,,,,,
943,Computer Science Department,Carnegie Mellon University,,,,Pittsburgh,,,
1462,Computer Science Department,Carnegie Mellon University,,,,Pittsburgh,PA,,
8062,Computer Science Department,Carnegie Mellon University,,,,,,,USA
1451,Computer Science Department,Center for Automation Research and Institute for Advanced Computer Studies,University of Maryland at College Park,,,,,,
7805,Computer Science Department,Center for Automation Research,and Institute for Advanced Computer Studies,University of Maryland,,College Park,MD,20742,USA
6957,Computer Science Department,Columbia University,,,,,,,
7942,Computer Science Department,Duke University,,,,,,,USA
1810,Computer Science Department,Hong Kong Univ. of Science and Technology,,,,,Hong Kong,,
8588,Computer Science Department,Illinois Institute of Technology,,,,Chicago,,,USA
842,Computer Science Department,Indiana University,,,,Bloomington,,,
6709,Computer Science Department,Stanford University,,,,,,,
7883,Computer Science Department,Stanford University,,,,Stanford,CA,94305,USA
630,Computer Science Department,Stanford University,,,,Stanford,CA,,
7857,Computer Science Department,Stanford University,,,,Stanford,CA,94305,USA
9300,Computer Science Department,Stanford University,,,,Stanford,,94305,USA
7943,Computer Science Department,Stanford University,,,,,,,USA
6866,Computer Science Department,TECHNION - Israel Institute of Technology,,Haifa,,Technion City,,32000,Israel
8766,Computer Science Department,Technion--Israel Institute of Technology,,,,Haifa,,,Israel
7815,Computer Science Department,Tel Aviv University,Ramat Aviv,,,Tel Aviv,,69978,Israel
8125,Computer Science Department,University of Arizona,,,,,,,USA
8514,Computer Science Department,University of California at Santa Barbara,,,,,,,USA
1964,Computer Science Department,University of California,,,,Berkeley,CA,,
8888,Computer Science Department,University of California,,Los Angeles,,Los Angeles,,90095,USA
7715,Computer Science Department,University of California,,California 92521,USA,Riverside,,,
8337,Computer Science Department,University of California,,,,,,,USA
7856,Computer Science Department,University of Illinois at Urbana-Champaign,,,,Urbana,IL,61801,USA
9260,Computer Science Department,University of Illinois,,,,Chicago,,60607,USA
6924,Computer Science Department,University of Maryland,College Park,,,,Maryland,,
2043,Computer Science Department,University of Maryland,College Park,,,,MD,,
9489,Computer Science Department,University of Maryland,College Park,,,,,20742,USA
6521,Computer Science Department,University of Sao Paulo at Sao Carlos,,,,,,,Brazil
723,Computer Science Department,University of Southern California,,,,Los Angeles,CA,,
8756,Computer Science Department,University of Southern California,,,,Los Angeles,,90089-0781,USA
8160,Computer Science Department,University of Southern California,,,,,,,USA
1314,Computer Science Department,University of Stuttgart,,,,Stuttgart,,,Germany
7872,Computer Science Department,University of Twente,,P.O. Box 217,,Enschede,,7500,The Netherlands
8674,Computer Science Department,Virginia Tech,Blacksburg,,,,,24060,USA
6519,Computer Science Department Carnegie Mellon University,,,,,,,,
1673,Computer Science Dept,UCLA,,,,,,,
6754,Computer Science Dept.,Columbia University,,,,,,,
6863,Computer Science Dept.,Stanford University,,,,Stanford,CA,,
705,Computer Science Dept.,SUNY at Binghamton,,,,,,,
1836,Computer Science Dept.,UCLA,,,,Los Angeles,CA,,
703,Computer Science Dept.,Univ. of Illinois at Chicago,,,,,,,
6825,Computer Science Division,National Technical University of Athens,,,,Athens,,157 73,Greece
7279,Computer Science Division,UC Berkeley,,,,,,,
7466,Computer Science Division,UC Berkeley,,,,Berkeley,CA,,
6583,Computer Science Program,School of EECS,University of Central Florida,Orlando,,,FL,,
1858,Computer Science UC,La Jolla,,,,San Diego,CA,,
1908,Computer Sciences,Purdue University,,,,,,,
1546,Computer Sciences Department,University of Wisconsin - Madison,,,,Madison,WI,,
6570,Computer Sciences Department,University of Wisconsin-Madison,,,,,,,
8684,Computer Sciences Department,University of Wisconsin-Madison,,,,Madison,,53706,USA
616,Computer Sciences Department,University of Wisconsin,,,,Madison,WI,,
851,Computer Sciences Department - ICMC/USP,,,,,São Carlos,SP,,Brazil
6506,Computer Sciences Dept.,University of Wisconsin,,,,,,,
6524,Computer Technology,Institute,,P.O.Box 1122,,Patras,,26110,Greece
3894,Computer Technology Institute,,,,,Patras,,,Greece
783,Computing Science,University of Aberdeen,Aberdeen,,,,,,UK
4923,Cornell Theory Center,,,,,Ithaca,NY,,
1105,Cornell University,,,,,,,,
4445,Cornell University,,,,,Ithaca,New York,,
2513,Cornell University,,,,,Ithaca,NY,,
5905,Cornell University,,,,,Ithaca,NY,,USA
6386,Cornell University,,,,,Ithaca,,,USA
9251,Cornell University,,,,,Ithaca,,14853,USA
9139,Cornell University Ithaca,,,,,,NY,,
7557,Courant Institute,New York University,,,,,,,
8226,Courant Institute,,,,,,NY,,
6680,Courant Institute,,,,,,NY,,
1053,Courant Institute of Mathematical Sciences,Department of Computer Science,New York University,,,,,,
6772,Courant Institute of Mathematical Sciences,New York University,,,,,,,
6654,Courant Institute of Mathematical Sciences,University,,New York,New York,,NY,,
1026,CS Dept.,UCLA,,,,,,,
789,CS Storage Systems Dept.,IBM Almaden Research Center,,,,,,,
2131,CSE,University of New South Wales,,,,Sydney,,,Australia
8251,CSIRO ICT Center/E-Health Research Center,,,,,,,,Australia
366,CSIRO ICT Centre,,,,,North Ryde,NSW,,Australia
3603,CTI Patras,,,,,,,,Greece
6637,CTO,QUIQ,UW-Madison,,,,,,
3570,CWI,,,,,,,,
5206,CWI,,,,,Amsterdam,,,Netherlands
1002,CWI,,,,,Amsterdam,,,The Netherlands
8614,CWI,,,,,Amsterdam,SJ,1098,The Netherlands
7762,CWI,,,Kruislaan 413,,Amsterdam,SJ,1098,The Netherlands
1223,CWI,GB Amsterdam,,,,Kruislaan,,,The Netherlands
1221,CWI,GB,,Kruislaan,,Amsterdam,,,The Netherlands
6605,CWI,One Microsoft Way,1090 GB Amsterdam & Microsoft Corporation,P.O. Box 94079,,Redmond,WA,,
1885,CWI,SJ Amsterdam,,,,,,,The Netherlands
466,CWI Amsterdam,,,,,,,,The Netherlands
1353,D.E.I.S. - Università della Calabria,,,,,Rende,,,Italy
6664,D.I.A.,Università di Roma Tre,,,,,,,
6667,D.I.F.A.,Università della Basilicata,,,,,,,
3571,Data Distilleries,,,,,,,,The Netherlands
7763,Data Distilleries B.V.,,,1098 SM Amsterdam,Kruislaan 402,,,,The Netherlands
6523,Data Eng.Lab,Dept.of Informatic,Aristotic University,of Thessaloniki,GR-54006 Greece,,,,
6574,Data Management,IBM T. J. Watson Research Center,,P. O.Box 704,,Yorktown Heights,NY,,
6718,Data Management Department,IBM T. J. Watson Research Center,,P. O. Box 704,,Yorktown Heights,NY,,
347,Data Mining Technologies,Oracle,,,,,,,
979,Database and Artificial Intelligence Group,Technische Universität,,Wien,,Vienna,,,Austria
1640,Database Research Group,Swiss Federal Institute of Technology (ETH),,,,Zurich,,,Switzerland
9756,Database Security Oracle Corp.,,,,,Redwood City,CA,,
7021,Database Systems Lab,Indian Institute of Science,,,,Bangalore,,,India
6476,Database Systems Lab,SERC,Indian Institue of science,,,Bangalore,,560012,INDIA
1306,Database Systems Lab,SERC,Indian Institute of Science,,,Bangalore,,,India
2142,Database Systems Lab,SERC/CSA,Indian Institute of Science,,,Bangalore,,,India
1127,Database Systems Lab.,SERC,Indian Institute of Science,,,Bangalore,,,India
7827,Database Systems R& D Center,University of Florida,,,,Gainesville,FL,32611––6125,
1284,Databases and Distributed Systems Group,Department of Computer Science,Darmstadt University of Technology,,,Darmstadt,,,Germany
8748,David R. Cheriton School of Computer Science,University of Waterloo,,,,Waterloo,,,Canada
597,David R. Cheriton School of Computer Science,University of Waterloo,,,,Waterloo,Ontario,,Canada
4258,DEI,Politecnico di Milano,,,,,,,Italy
9244,DEIS,Università della Calabria,,,,Rende,CS,,Italy
1625,Deis UNICAL,,,,,,,,
7657,DEIS---CSITE--CNR,University of Bologna,,,,Bologna,,,Italy
9366,Department of Anthropology,UCR,,,,Riverside,,,USA
758,Department of Anthropology,University of California - Riverside,,,,Riverside,CA,,
8237,Department of Biology,Indiana University,,,,,,,USA
8694,Department of COFM,National University of Singapore,,,,Singapore,,,Singapore
2161,Department of Computer,Science,Worcester Polytechnic Institute,,,Worcester,MA,,
8136,Department of Computer and Information Science,University of Pennsylvania,,Moore School Building,,,,,USA
1480,Department of Computer and Information Science,The University of Michigan - Dearborn,,,,Dearborn,MI,,
8019,Department of Computer and Information Science,The University of Michigan - Dearborn,,,,Dearborn,MI,48128,USA
8677,Department of Computer and Information Science,University of Michigan,,,,Dearborn,,48128,USA
8831,Department of Computer and Information Sciences,University of Pennsylvania,,,,Philadelphia,,19104,USA
1550,Department of Computer and Information Sciences and Engineering,University of Florida,,,,Gainesville,FL,,
8586,Department of Computer and Information Sciences and Engineering,University of Florida,Gainsville,,,,,,USA
7993,Department of Computer Engineering,Bilkent University,6800,Bilkent,,Ankara,,,Turkey
2188,Department of Computer Engineering,Bilkent University,,,,Ankara,,,Turkey
8544,Department of Computer Engineering,Kyungpook National University,,South Korea 702-701,,Daegu,,,
8155,Department of Computer Engineering,Middle East Technical University,,,,,,,Turkey
8381,Department of Computer Engineering & Maths,Rovira i Virgili University of Tarragona,,,,,Catalonia,,
7935,Department of Computer Engineering and Information Technology,City University of Hong Kong,,Tat Chee Avenue,Hong Kong,Kowloon,,,China
7786,Department of Computer Science,Aalborg University,,,,Aalborg Øst,,9220,Denmark
1595,Department of Computer Science,Aalborg University,,,,Aalborg Ø,,,Denmark
9360,Department of Computer Science,Aalborg University,,,,Aalborg,,,Denmark
1476,Department of Computer Science,Aalborg University,,,,,,,Denmark
7980,Department of Computer Science,Aalborg University,Fredrik Bajers Vej 7E,,,Aalborg Øst,,9220,Denmark
8171,Department of Computer Science,Boston University,,,,Boston,MA,2215,USA
8151,Department of Computer Science,Boston University,,,,,,,USA
1539,Department of Computer Science,Brandeis University,,,,,,,
7916,Department of Computer Science,Brandeis University,,,,Waltham,MA,2254,USA
8087,Department of Computer Science,Brandeis University,,,,,,,USA
1533,Department of Computer Science,Brandeis University,,,,Waltham,MA,,
728,Department of Computer Science,Brown University,,,,,,,
7917,Department of Computer Science,Brown University,,,,Providence,RI,2912,USA
8085,Department of Computer Science,Brown University,,,,,,,USA
8575,Department of Computer Science,Carnegie Mellon University,,,,Pittsburgh,,,USA
8502,Department of Computer Science,Center for Automation Research Institute for Advanced Computer Studies,University of Maryland,,,,,,USA
6967,Department of Computer Science,City University of Hong Kong,,83 Tat Chee Avenue,Hong Kong,Kowloon,,,
1522,Department of Computer Science,City University of Hong Kong,,,,,Hong Kong,,
762,Department of Computer Science,City University of Hong Kong,Kowloon Tong,,,,Hong Kong SAR,,China
1274,Department of Computer Science,City University of Hong Kong,,,,Kowloon,Hong Kong,,
1750,Department of Computer Science,Cornell University,,,,,,,
1103,Department of Computer Science,Darmstadt University of Technology,,,,,,,
8571,Department of Computer Science,Drop and Statistics,University of São Paulo at São Carlos,São Carlos,,,,,Brazil
510,Department of Computer Science,Duke University,,,,,,,
1067,Department of Computer Science,Duke University,,,,Durham,NC,,
8510,Department of Computer Science,Fudan University,,,,,,,China
9332,Department of Computer Science,Global Scientific Information and Computing Center,Tokyo Institute of Technology,Japan 152-8552,,Tokyo,,,
9306,Department of Computer Science,Harbin Institute of Technology,,,,Harbin,,,China
1915,Department of Computer Science,Hong Kong University of Science and Technology,,,,,,,
1034,Department of Computer Science,Hong Kong University of Science and Technology,,Hong Kong,,,Clear Water Bay,,
7811,Department of Computer Science,Hong Kong University of Science and Technology,,China,,Kowloon,Clear Water Bay,,
1525,Department of Computer Science,Hong Kong University of Science and Technology,,Hong Kong,,,Clearwater Bay,,
516,Department of Computer Science,Hong Kong University of Science and Technology,,,,,Hong Kong,,
8683,Department of Computer Science,Hong Kong University of Science and Technology,,,,Kowloon,Hong Kong,,China
7745,Department of Computer Science,Institute for Advanced Computer Studies & Institute for Systems Research,,University of Maryland,,College Park,MD,20742,USA
8890,Department of Computer Science,Korea Advanced Institute of Science and Technology (KAIST),,,,Daejeon,,,South Korea
8012,Department of Computer Science,Monmouth University,,West Long Branch,,,NJ,7764,USA
9345,Department of Computer Science,National Chengchi University,,ROC,,Taipei,,,Taiwan
8802,Department of Computer Science,National Chiao Tung University,,ROC,,Hsinchu,,,Taiwan
9343,Department of Computer Science,National Tsing Hua University,,ROC,,Hsinchu,,,Taiwan
1914,Department of Computer Science,National University of Singapore,,,,,,,
8013,Department of Computer Science,National University of Singapore,3 Science Drive 2,117543,,,,,Singapore
6723,Department of Computer Science,National University of Singapore,3 Science Drive 2,,,,,,Singapore
7768,Department of Computer Science,National University of Singapore,3 Science Drive 2,Singapore 117543,,,,,
8330,Department of Computer Science,National University of Singapore,,,,,,,Singapore
6918,Department of Computer Science,National University of Singapore,,,,,,117543,Singapore
9307,Department of Computer Science,National University of Singapore,,,,Singapore,,,Singapore
6532,Department of Computer Science,National University of singapore,,,,,,,SINGAPORE
8379,Department of Computer Science,Purdue University,,,,,,,USA
727,Department of Computer Science,Purdue University,,,,West Lafayette,IN,,
8800,Department of Computer Science,Purdue University,,,,West Lafayette,,47907,USA
7888,Department of Computer Science,Southwest Texas State University,,,,San Marcos,TX,78666,USA
8078,Department of Computer Science,Stanford University,,,,,,,USA
6565,Department of Computer Science,,,,,Stanford,CA,,
773,Department of Computer Science,State University of New York at Stony Brook,,,,Stony Brook,NY,,
8055,Department of Computer Science,SUNY at Binghamton,,,,,,,USA
1115,Department of Computer Science,Swiss Federal Institute of Technology (ETHZ),ETH Zentrum,,,Zürich,,,Switzerland
1055,Department of Computer Science,The Technion,,,,Haifa,,,Israel
9330,Department of Computer Science,Tokyo Institute of Technology,,Japan 152-8552,,Tokyo,,,
6775,Department of Computer Science,University of Arizona,,,,,AZ,,
1483,Department of Computer Science,University of Arizona,,,,Tucson,AZ,,
1734,Department of Computer Science,University of British Columbia,,,,,,,
6496,Department of Computer Science,University of British Columbia,,BC V6T 1Z4 Canada,,Vancouver,,,
538,Department of Computer Science,University of British Columbia,,,,Vancouver,,,Canada
8695,Department of Computer Science,University of Calgary,,,,Calgary,,,Canada
8154,Department of Computer Science,University of Calgary,,,,,,,Canada
8356,Department of Computer Science,University of California at Davis,,,,,,,USA
677,Department of Computer Science,University of California Santa Barbara,,,,Santa Barbara,CA,,
855,Department of Computer Science,University of California Santa Cruz,,,,Santa Cruz,CA,,
7714,Department of Computer Science,University of California,zaniolo&rcub;@cs.ucla.edu,California 90095,USA,Los Angeles,,,
1921,Department of Computer Science,University of California,,,,Riverside,,,
6860,Department of Computer Science,University of California,,,,Santa Barbara,,,
6843,Department of Computer Science,University of California,,,,Santa Barbara,CA,,
7790,Department of Computer Science,University of Chile,Blanco Encalada 2120,Santiago,Chile,,,,
8174,Department of Computer Science,University of Helsinki,,,,,,,Finland
7894,Department of Computer Science,University of Helsinki,,,,Helsinki,,,Finland
515,Department of Computer Science,University of Hong Kong,,,,,Hong Kong,,
8686,Department of Computer Science,University of Hong Kong,,,,,Hong Kong,,China
9486,Department of Computer Science,University of Hong Kong,,,,,Hong Kong,,
8876,Department of Computer Science,University of Illinois at Chicago,,,,Chicago,,,USA
8361,Department of Computer Science,University of Illinois at Chicago,,,,,,,USA
7947,Department of Computer Science,University of Illinois at Urbana-Champaign,IL 61801,,,Urbana,,,USA
570,Department of Computer Science,University of Illinois at Urbana-Champaign,,,,Urbana,IL,,
8145,Department of Computer Science,University of Magdeburg,,,,,,,Germany
1688,Department of Computer Science,University of Magdeburg,,,,Magdeburg,,,Germany
1423,Department of Computer Science,University of Maryland,,,,,,,
6528,Department of Computer Science,University of Maryland,College Park,,,,,,
8066,Department of Computer Science,University of Maryland,,,,,,,USA
6912,Department of Computer Science,University of Massachusetts,,,,Amherst,MA,,
8242,Department of Computer Science,University of Massachusetts,,,,,,,USA
6763,Department of Computer Science,University of Minnesota,,,,Minneapolis,MN,,
1422,Department of Computer Science,University of Pittsburgh,,,,,,,
8065,Department of Computer Science,University of Pittsburgh,,,,,,,USA
7990,Department of Computer Science,University of Southern California,,,,Los Angeles,CA,90088,USA
1939,Department of Computer Science,University of Southern California,,,,Los Angeles,CA,,
8752,Department of Computer Science,University of Southern Maine,,,,Portland,,,USA
7989,Department of Computer Science,University of Texas at Dallas,,,,Richardson,TX,75083-0688,USA
2071,Department of Computer Science,University of Toronto,,,,,,,
7791,Department of Computer Science,University of Toronto,M5S 1A4,10 King's College Road,,Toronto,ON,,Canada
8809,Department of Computer Science,University of Toronto,Bahen Center for Information Technology,Canada M5S 2E4,,Toronto,,,
8159,Department of Computer Science,University of Toronto,,,,,,,Canada
9480,Department of Computer Science,University of Toronto,,,,Toronto,,,Canada
8679,Department of Computer Science,University of Toronto,,Canada M5S 3G4,,Toronto,,,
7789,Department of Computer Science,University of Toronto,,Canada,,Toronto,,,
6944,Department of Computer Science,University of Toronto,,,,Toronto,ON,,Canada
7799,Department of Computer Science,University of Waterloo,Canada,200 University Avenue West,,Waterloo,Ontario,N2L 3G1,
7671,Department of Computer Science,University of Wisconsin-Madison,,1210 West Dayton Street,,Madison,WI,53706-1685,USA
7885,Department of Computer Science,Virginia Tech,,7054 Haycock Road,,Falls Church,VA,22043,USA
7956,Department of Computer Science,Virginia Tech,,7054 Haycock Road,,Falls Church,VA,22043,USA
9426,Department of Computer Science,Virginia Tech,,,,Blacksburg,,24061,USA
1356,Department of Computer Science,Wichita State University,,,,Wichita,KS,,
7984,Department of Computer Science,Worcester Polytechnic Institute,,,,Worcester,MA,01609-2280,USA
8243,Department of Computer Science,Worcester Polytechnic Institute,,,,,,,USA
907,Department of Computer Science,Worcester Polytechnic Institute,,,,Worcester,MA,,
6740,Department of Computer Science,Wright State University,,,,Dayton,OH,,
887,Department of Computer Science,Zhejiang University,,,,HangZhou,,,P.R.China
2091,Department of Computer Science & Department of Electrical and Computer Engineering,University of Toronto,,,,,,,
8165,Department of Computer Science & Electrical Engineering,University of Maryland,,,,,,,USA
755,Department of Computer Science & Engineering,University of California - Riverside,,,,Riverside,CA,,
8170,Department of Computer Science & Engineering,University of California Riverside,,,,,,,USA
1017,Department of Computer Science & Engineering,University of California,,,,San Diego,,,
8542,Department of Computer Science and Advanced Information Technology Research Center (AITrc),Korea Advanced Institute of Science and Technology (KAIST),,,,Daejeon,, 305-701,South Korea
1158,Department of Computer Science and Advanced Information Technology Research Center (AITrc),Korea Advanced Institute of Science and Technology (KAIST),,,,Taejon,,,Korea
998,Department of Computer Science and Automation,Indian Institute of Science,,,,Bangalore,,,India
8144,Department of Computer Science and Automation,Technical University of Ilmenau,,,,,,,Germany
8511,Department of Computer Science and Computer Engineering,La Trobe University,,,,,,,Australia
2093,Department of Computer Science and Department of Electrical and Computer Engineering,University of Toronto,,,,,,,
7992,Department of Computer Science and Engineering,Arizona State University,,,,Tempe,AZ,85287-5406,USA
1656,Department of Computer Science and Engineering,Arizona State University,,,,Tempe,AZ,,
8150,Department of Computer Science and Engineering,Bourns College of Engineering,University of California,,,Riverside,,,USA
7721,Department of Computer Science and Engineering,University of Washington,,Box 352350,,Seattle,WA,98195-2350,USA
8687,Department of Computer Science and Engineering,,,,,,Hong Kong,,China
8804,Department of Computer Science and Engineering,Chinese University of Hong Kong,,Hong Kong,,,New Territories,,
540,Department of Computer Science and Engineering,Chinese University of Hong Kong,,Hong Kong,,Sha Tin,New Territories,,
8173,Department of Computer Science and Engineering,Helsinki University of Technology,,,,,,,Finland
1276,Department of Computer Science and Engineering,Indian Institute of Technology Bombay,,,,Mumbai,,,India
6909,Department of Computer Science and Engineering,Indian Institute of Technology Bombay,,India 400076,,Mumbai,,,
1479,Department of Computer Science and Engineering,Michigan State University,East Lansing,,,,MI,,
1431,Department of Computer Science and Engineering,State University of New York at Buffalo,,,,Buffalo,NY,,
7747,Department of Computer Science and Engineering,The Chinese University of Hong Kong,,,,,Hong Kong,,
8612,Department of Computer Science and Engineering,The Hong Kong University of Science and Technology,,,,Kowloon,Hong Kong,,
9385,Department of Computer Science and Engineering,The Hong Kong University of Science and Technology,,,,Kowloon,Hong Kong,,China
8355,Department of Computer Science and Engineering,The Ohio State University,,,,,,,USA
859,Department of Computer Science and Engineering,The Pennsylvania State University,University Park,,,,PA,,
7665,Department of Computer Science and Engineering,The Pennsylvania State University,,,,University Park,PA,16802,USA
9362,Department of Computer Science and Engineering,UCR,,,,Riverside,,,USA
1682,Department of Computer Science and Engineering,University of California San Diego,,,,,,,
8129,Department of Computer Science and Engineering,University of California,,,,,,,USA
9487,Department of Computer Science and Engineering,University of Minnesota-Twin Cities,,,,Minneapolis,,55455,USA
725,Department of Computer Science and Engineering,University of Minnesota,,,,Minneapolis,MN,,
8799,Department of Computer Science and Engineering,University of Minnesota,,,,Minneapolis,,55455,USA
960,Department of Computer Science and Engineering,University of Minnesota,,Minnesota,,,MN,,
8377,Department of Computer Science and Engineering,University of Minnesota,,,,,,,USA
9467,Department of Computer Science and Engineering,University of Washington,,,,Seattle,,,USA
6847,Department of Computer Science and Engineering,University of Washington,,,,Seattle,WA,,
7867,Department of Computer Science and Engineering,University of Washington,,,,Seattle,WA,98195,
8135,Department of Computer Science and Engineering,University of Washington,,,,,,,USA
7948,Department of Computer Science and Engineering,University of Washington,,,,Seattle,WA,98195,USA
9505,Department of Computer Science and Engineering,Wright State University,,,,Dayton,,,USA
1753,Department of Computer Science and Engineering University of California,,,,,Riverside,CA,,
6969,Department of Computer Science and Information Engineering,National Taiwan University,,ROC,,Taipei,,,Taiwan
1527,Department of Computer Science and Information Systems,,,,,,Hong Kong,,
9351,Department of Computer Science and Software Engineering,ARC Centre for Perceptive and Intelligent Machines in Complex Environments,The University of Melbourne,,,Melbourne,,,Australia
1726,Department of Computer Science Northeastern University,,,,,Liaoning,,,China
6569,Department of Computer Science University of Maryland,,,,,College Park,,,
6568,Department of Computer Science University of Maryland,,Also with the Institute for Systems Research,University of Maryland,,College Park,,,
7958,Department of Computer Sciences,Purdue University,,250 N. University Street,,West Lafayette,IN,47907,USA
7889,Department of Computer Sciences,Purdue University,,250 N. University Street,,West Lafayette,IN,47907,USA
8060,Department of Computer Sciences,Purdue University,,,,,,,USA
1512,Department of Computer Sciences,Purdue University,,,,West Lafayette,IN,,
1216,Department of Computer Sciences,Purdue University,,,,West Lafayette,IN,,
7882,Department of Computer Sciences,Purdue University,,,,West Lafayette,IN,47907-1398,USA
732,Department of Computer Sciences,Purdue University,,,,West Lafayette,Indiana,,
8696,Department of Computer Sciences,Purdue University,,,,West Lafayette,,,USA
9388,Department of Computer Sciences,Purdue University,,,,West Lafayette,,47907-2107,USA
1064,Department of Computer Sciences,University of Wisconsin-Madison,,,,,,,
7910,Department of Computer Sciences,University of Wisconsin-Madison,,1210 W. Dayton Street,,Madison,WI,53706,USA
6851,Department of Computer Sciences,University of Wisconsin,,,,Madison,,,
1409,Department of Computer Sciences,University of Wisconsin,,Madison,,Madison,WI,,
7788,Department of Computing Science,University of Alberta,,Canada,,,Alberta,,
6727,Department of Computing Science,University of Alberta,,,,Edmonton,Alberta,,Canada
7681,Department of Computing Science,University of Glasgow,mpa,,,Glasgow,,G12 8QQ,UK
7812,Department of Computing Science,University of Illinois at Urbana-Champaign,,1304 West Springfield Ave,,,IL,61801,USA
1039,Department of CS,ETHZ,,,,Zürich,,,Switzerland
8692,Department of CS,National University of Singapore,,,,Singapore,,,Singapore
9681,Department of CS,Portland State University,,,,,,,
532,Department of EECS,University of Michigan,,,,,,,
1720,Department of EECS,University of Michigan,,,,Ann Arbor,MI,,
8661,Department of EECS,University of Michigan,,,,Ann Arbor,,,USA
8701,Department of EECS,University of Michigan,,,,Ann Arbor,,48109,USA
7922,Department of EECS and Laboratory of Computer Science,M.I.T.,,,,Cambridge,MA,2139,USA
8083,Department of EECS and Laboratory of Computer Science,Massachussetts Institute of Technology,,,,,,,USA
8354,Department of Electrical and Computer Engineering,Carnegie Mellon University,,,,,,,USA
1322,Department of Electrical and Computer Engineering and Department of Computer Science,Univerity of Toronto,,,,,Ontario,,Canada
1659,Department of Electrical and Computer Engineering and Department of Computer Science,University of Toronto,,,,,,,Canada
8505,Department of Electrical Engineering,National Taiwan University,ROC,,,,,,
8732,Department of Electrical Engineering,National Taiwan University,,ROC,,Taipei,,,Taiwan
9294,Department of Electrical Engineering and Computer Science,Case Western Reserve University,,,,Cleveland,,44106,USA
8363,Department of Electrical Engineering and Computer Science,Northwestern University,,,,,,,USA
6799,Department of Electrical Engineering and Computer Science,University of Michigan,,,,,,,
1117,Department of Electrical Engineering and Computer Science,University of Michigan,,,,Ann Arbor,MI,,
7925,Department of Electrical Engineering and Computer Sciences,University of California at Berkeley,,,,Berkeley,CA,94720,USA
7741,Department of Electronic and Computer Engineering,National Technical University of Athens,,Greece,,,,,Hellas
920,Department of Electronic Engineering,National Taiwan University of Science and Technology,,Taiwan and Institute of Information Science,Academia Sinica,Taipei,,,Taiwan
7807,Department of Informatics,Aristotle University of Thessaloniki,,manolopo&rcub;&commat;delab.csd.auth.gr,,,,,Greece
7742,Department of Informatics,Athens University of Economics and Business,,Greece,,,,,Hellas
8742,Department of Informatics and Telecommunications,University of Athens,,,,Athens,,,Greece
8387,Department of Information and Communication Technology,University of Trento,,,,,,,Italy
9344,Department of Information and Computer Engineering,Chung Yuan Christian University,Chung Li,ROC,,,,,Taiwan
6779,Department of Information and Computer Science,University of California,,,,Irvine,California,,
7785,Department of Information and Software Engineering,George Mason University,,,,Fairfax,Virginia,,USA
8153,Department of Information and Software Engineering,George Mason University,,,,,,,USA
8691,Department of Information Management,National Sun Yat-Sen University,Kaohsiung,,,,,,Taiwan
922,Department of Mathematics and Computer Science,Emory University,,GA and Institute of Information Science,Academia Sinica,Atlanta,,,Taiwan
530,Department of Mathematics and Computer Science,University of Mannheim,,,,,,,
6673,Department of Mathematics and Computer Science,University of Marburg,35032 Marburg,,,,,,Germany
1037,Department of Mathematics and CS,University of Marburg,,,,Marburg,,,Germany
2046,Department of Mechanical Engineering,Massachusetts Inst. of Technology,,,,Cambridge,MA,,
1463,Department of Statistics,Carnegie Mellon University,,,,Pittsburgh,PA,,
8063,Department of Statistics,Carnegie Mellon University,,,,,,,USA
864,Department of Statistics,The Pennsylvania State University,University Park,PA and Department of Computer Science and Engineering,The Pennsylvania State University,University Park,PA,,
1769,Department of System Engineering and Engineering Management,The Chinese Univ. of Hong Kong,,,,,Hong Kong,,China
7810,Department of Systems Engineering and Engineering Management,Chinese University of Hong Kong,,,,Shatin,N.T.,,China
840,Department of Systems Engineering and Engineering Management,The Chinese Univ. of Hong Kong,,,,,Hong Kong,,China
1094,Dept of Computer Science,University of Massachusetts,,,,Amherst,MA,,
1970,Dept of EECS,UC Berkeley,,,,,,,
895,Dept. de Computação,Inst. de Ciências Matemáticas e de Computação,Universidade de São Paulo,,,São Carlos,SP,,Brazil
6653,Dept. of CIS,NJIT,,,,,NJ,,
655,Dept. of Computer Science,Cornell University,,,,,,,
1417,Dept. of Computer Science,Duke University,,,,Durham,NC,,
1767,Dept. of Computer Science,Hong Kong Univ. of Sci. & Tech.,,,,,Hong Kong,,China
1347,Dept. of Computer Science,SUNY at Binghamton,,,,Binghamton,NY,,
1387,Dept. of Computer Science,The Hong Kong Univ. of Science and Technology,,,,,Hong Kong,,China
2179,Dept. of Computer Science,Tufts University,,,,,,,
1345,Dept. of Computer Science,U. of Illinois at Chicago,,,,Chicago,IL,,
6791,Dept. of Computer Science,UIUC,,,,,,,
1415,Dept. of Computer Science,Univ. of Illinois at Chicago,,,,Chicago,IL,,
6686,Dept. of Computer Science,Univ. of Manchester,United Kingdom,,,,,,
6563,Dept. of Computer Science,University of Arizona,,,,Tucson,AZ,,
788,Dept. of Computer Science,University of Illinois at Urbana-Champaign,,,,,,,
1851,Dept. of Computer Science,University of Maryland,,,,,,,
1826,Dept. of Computer Science,University of Toronto,,,,,,,
6505,Dept. of Computer Science,University of Waterloo,,,,,,,
6658,Dept. of Computer Science & Engineering,University of,,Washington,,Seattle,WA,,
1309,Dept. of Computer Science and Engg.,I.I.T.,,,,Bombay,,,
694,Dept. of Computer Science and Engineering,Chinese University of Hong Kong,,,,,Hong Kong,,New Territories
760,Dept. of Computer Science and Engineering,Hong Kong Univ. of Science and Technology,,Hong Kong SAR,,,Clear Water Bay,,China
6809,Dept. of Computer Science and Engineering,University of California,,La Jolla,,San Diego,CA,,
6790,Dept. of CS,SUNY at Binghamton,,,,Binghamton,NY,,
6789,Dept. of CS,U. of Illinois at Chicago,,,,Chicago,IL,,
6687,Dept. of Electrical and Computer Eng.,National Technical University of Athens,,,,,,,Greece
1144,Dept. of Electrical Engineering & Computer Science,Korea Advanced Institute of Science and Technology (KAIST),,,,,,,
1087,Dept. of Info. & Software Eng.,George Mason University,,,,,,,
8315,Dept. of Informatics and Telecommunications,University of Athens,,,,Athens,,,Hellas
6845,Dept. of Information and Computer Science,University of California,,,,Irvine,,,
657,Dept. of Mechanical & Aerospace Engineering,Cornell University,,,,,,,
6590,Dept. of Physics and Astronomy,The Johns Hopkins University,,,,Baltimore,MD,,
1390,Dept. of Systems Engineering and Engineering Management,The Chinese Univ. of Hong Kong,,,,,Hong Kong,,China
1645,DIA - Università Roma Tre,,,,,Roma,,,Italy
9496,DII,Univ. di Modena e Reggio Emilia,,,,Modena,,,Italy
8790,DIMET Department,University Mediterranea of Reggio Calabria,Reggio Calabria,,,,,,Italy
8871,Dip. di Informatica,Univ. di Torino,,,,Torino,,,Italy
7817,Dipartimento di Elettronica e Informazione,Politecnico di Milano,Piazza Leonardo da Vinci 32,,,Milan,parabosc}@elet.polimi.it,20133,Italy
6684,Dipartimento di Informatica e Sistemistica,Università di Roma La Sapienza,,,,,,,Italy
6949,Dipartimento di Informatica e Sistemistica,Università di Roma La Sapienza,Via Salaria 113,,,Roma,,,Italy
6554,Dipartimento di Matematica Pure ed Applicata,Universita Degli Studi di L'Aquila,,,,L'Aquila,,,Italy
7794,Dipartimento di Scienze dell'Informazione,Università degli Studi di Milano,Via Comelico 39/41,,,Milano,,20135,Italy
8884,Distributed Information Systems Laboratory,School of Computer and Communication Sciences,EPFL,EPFL-IC-LSIR,,Lausanne,,1015,Switzerland
8017,Division of Computer Science,Department of Mathematical Sciences,University of North Carolina at Greensboro,Bryan 383,,Greensboro,NC,27402-6170,USA
977,Division of Computer Science,Korea Advanced Institute of Science and Technology,,,,,,,
9492,Division of Information Systems,School of Computer Engineering,Nanyang Technological University,N4 02A-07,,,,639798,Singapore
7953,Domaine de Voluceau,INRIA,,,,Le Chesnay,,78153,France
536,Dortmund University,,,,,,,,
5136,Dresden Technical University,,,,,Dresden,,,Germany
443,Dresden University of Technology,,,,,,,,
2180,Dresden University of Technology,Database Technology Group,,,,,,,
807,Dresden University of Technology,Database Technology Group,,,,Dresden,,,Germany
5241,Dresden University of Technology,,,,,Dresden,,,Germany
953,Dresden University of Technology,Software Engineering Group,,,,Dresden,,,Germany
4842,Drexel University,,,,,,,,
1086,DSI,Università di Milano,,,,,,,Italy
6934,DSI-Università di Milano,,,Via Comelico 39/41,,Milano,,20135,
6933,DSI-Università di Milano,,,Via Comelico 39/41,,Milano,,20135,Italy
604,Duke University,,,,,,,,
2456,Duke University,,,,,Durham,NC,,
6009,Duke University,,,,,Durham,NC,,USA
3344,Duke University,,,,,Durham,North Carolina,,
6756,E.piphany,Inc.,,,,,,,
1411,Ecole Nationale Superieure,de Telecommunications,,,,Paris,,,France
8940,Ecole Polytechnique Fédéral de Lausanne,LTAA,,,,Lausanne,,,Switzerland
8941,Ecole Polytechnique Fédéral de Lausanne & Google,LTAA,,,,Lausanne,,,Switzerland
205,Ecole Polytechnique Fédérale de Lausanne (EPFL),,,,,Lausanne,,,Switzerland
1403,EECS Computer Science Division,UC Berkeley,,,,,,,
903,EECS Computer Science Division,University of California Berkeley,,,,Berkeley,CA,,
7893,EECS Department,Tufts University,Medford,,,,MA,,
1795,EECS Department,UC Berkeley,,,,,,,
966,EECS Dept,Case Western Reserve University,,,,Cleveland,Ohio,,
2167,EECS Dept.,UC Berkeley,,,,,,,
8469,E-Health Research Centre/CSIRO ICT,,,,,,,,Australia
8448,Eindhoven Technical University,,,,,Eindhoven,,,The Netherlands
1119,Electrical Engineering and Computer Science,University of Michigan,,,,Ann Arbor,MI,,
9262,Electrical Engineering and Computer Science,University of Michigan,,,,Ann Arbor,,48109,USA
1340,Electrical Engineering Department,National Taiwan University,,ROC,,Taipei,,,Taiwan
8763,Electrical Engineering Department,National Taiwan University,,,,Taipei,,,"Taiwan, ROC"
955,Embedded System Technology Group,Information Technology Lab.,LG Electronics Institute of Technology,Seocho-Gu,,Seoul,,,Korea
7962,Embrapa - Brazilian Agricultural Research Corporation,,,Av. Dr. Andre Torsello 209,,Campinas,SP,13083-886,Brazil
8590,Emory University,,,,,Atlanta,GA,,
3034,EPFL,,,,,,,,
5739,EPFL,,,,,Lausanne,,,Switzerland
3005,EPFL,,,,,,,,Switzerland
3576,Epiphany,,,,,,,,USA
6585,Epiphany Inc.,,,,,Palo Alto,CA,,
7345,ETH Zürich,,,CH 8092,,Zürich,,,Switzerland
1303,ETH Zurich,,,,,,,,
2625,ETH Zurich,CH,,,,,,,
308,ETH Zurich,,,,,,,,Switzerland
182,ETH Zurich,,,,,Zurich,,,
607,ETH Zurich,,,,,Zurich,,,Switzerland
8746,ETH Zurich,,,,,Zurich,,8092,Switzerland
1198,European Organization for Nuclear Research (CERN),,,,,Geneva,,,Switzerland
5881,Facebook,,,,,Palo Alto,CA,,USA
9768,Facebook Data Infrastructure Team,,,,,,,,
6520,Fachbereich Mathematik und Informatik Universität,,,,,Marburg,,,Germany
6530,faculty at the University of Wisconsin-Madison,,,,,,,,
772,Faculty of Computer Science,Free University of Bozen-Bolzano,Bolzano,,,,,,Italy
9460,Faculty of EEMCS,University of Twente,Enschede,,,,,7500AE,The Netherlands
9499,Faculty of Mathematics and Computer Science,University of Hagen,,,,Hagen,,58084,Germany
1487,Fakultät für Mathematik und Informatik,University of Mannheim,,,,,,,Germany
7568,FernUniv. Hagen,,,,,,,,
8284,FernUniversität Hagen,,,,,Hagen,,,Germany
4867,FIU,,,,,,,,
9100,Florida International University,,,,,,,,
5094,Florida International University,,,,,Miami,FL,,
6392,Florida International University,,,,,Miami,FL,,USA
3378,Florida International University,University Park,,,,Miami,FL,,USA
9399,Florida State University,,,,,Tallahassee,FL,,
6135,Florida State University,,,,,Tallahassee,FL,,USA
5764,Florida State University,,,,,Tallahassee,,,USA
7945,Forschungszentrum Informatik (FZI),University of Karlsruhe,,,,Karlsruhe,,76131,Germany
3532,FORWISS,,,,,,,,
8141,France Telecom R&D,,,,,,,,France
8530,Free University of Bozen-Bolzano,Bozen-Bolzano BZ,,,,,,,Italy
892,Free University of Bozen-Bolzano,Bozen-Bolzano,,,,,,,Italy
86,Free University of Bozen-Bolzano,Bozen,,,,,,,Italy
2087,Free University of Bozen-Bolzano,Faculty of Computer Science,,,,,,,Italy
1178,Fudan University,,,,,,,,
4516,Fudan University,,,,,,,,China
915,Fudan University,,,,,Shanghai,,,China
7613,George Mason Univ.,Fairfax. VA,,,,,,,
264,George Mason University,,,,,,,,
2233,George Mason University,,,,,Fairfax,VA,,
7900,George Mason University,,,,,Fairfax,Virginia,,
6373,George Mason University,,,,,Fairfax,VT,,USA
6076,George Washington University,,,,,Washington D.C.,DC,,USA
6449,George Washington University,,,,,Washington,DC,,USA
3012,Georgia Institute of Technology,,,,,,,,
7840,Georgia Institute of Technology,,,,,Atlanta,GA,30332,USA
6927,Georgia Institute of Technology,,,,,Atlanta,GA,,
5864,Georgia Institute of Technology,,,,,Atlanta,GA,,USA
6712,Georgia Institute of Technology,College of Computing,,,,,,,
8410,Georgia State University,,,,,Atlanta,GA,,
3596,Georgia Tech,,,,,,,,
6482,Gigabeat Inc.,,,,,Palo Alto,CA,,
9331,Global Scientific Information and Computing Center,Tokyo Institute of Technology,,,,Tokyo,,152-8552,Japan
2551,Google,,,,,,,,
5774,Google,,,,,Mountain View,CA,,USA
776,Google Inc.,,,,,,,,
2401,Google Inc.,,,,,Mountain View,CA,,
5771,Google Inc.,,,,,Mountain View,CA,,USA
2322,Google Inc.,,,,,Mountain View,California,,
8644,Google Inc.,,,,,Mountain View,,,USA
8798,Google Inc.,,,,,Mountain View,,94043,USA
3337,Google Inc.,,,,,,,,
3297,Google Inc.,,,,,Mountain View,CA,,
6411,Google Inc.,,,,,Mountain View,CA,,USA
9432,Google Inc.,,,,,Mountain View,,94043,USA
8855,Google Inc.,,,,,New York,NY,,
9600,Greenplum,,,,,,,,
6277,Greenplum Inc.,,,,,San Mateo,CA,,USA
4837,Haifa University,,,,,,,,
8599,Haifa University,,,,,Haifa,,,Israel
9020,Harbin Institute of Tech.,,,,,,,,
3111,Harbin Institute of Technology,,,,,,,,
42,Harbin Institute of Technology,,,,,,,,China
3038,Harbin Institute of Technology,,,,,Harbin,,,China
2655,Hasso-Plattner-Institut,,,,,Potsdam,,,
2744,Hasso-Plattner-Institut,,,,,Potsdam,,,Germany
393,Hebrew University,,,,,,,,
5491,Hebrew University,,,,,Jerusalem,,,Israel
9458,Hebrew University of Jerusalem,,,,,Jerusalem,,,Israel
1212,HeliXense Pte Ltd,,,,,,,,Singapore
1210,HeliXense Pte Ltd.,,,,,,,,Singapore
8285,Helsinki University of Technology,HUT,,,,,,,Finland
1218,Hewlett Packard,,,,,Palo Alto,CA,,
5198,Hewlett Packard Laboratories,,,,,Palo Alto,CA,,
6056,Hewlett Packard Laboratories,,,,,Palo Alto,CA,,USA
1185,Hewlett-Packard,,,,,Palo Alto,CA,,
6940,Hewlett-Packard Company,,,1501 Page Mill Road,,Palo Alto,CA,,
805,Hewlett-Packard Company,,,,,Houston,TX,,
320,Hewlett-Packard Company,Tomball Parkway,,,,Houston,TX,,
2140,Hewlett-Packard Laboratories,,,,,Palo Alto,CA,,
6471,Hewlett-Packard Laboratories,,,,,Palo Alto,California,,
3755,Hewlett-Packard Labs,,,,,,,,
2488,Hewlett-Packard Labs,,,,,Palo Alto,CA,,
9441,Highbridge Capital Management LLC,,,,,,,,USA
5678,Highbridge Capital Management LLC,,,,,,,,USA
3372,HKUST,,,,,,,,
4140,HKUST,,,,,Hong Kong,Clear Water bay,,
5403,HKUST,,,,,Hong Kong,,,China
4502,Hong Kong Baptist University,,,,,,,,
5083,Hong Kong Baptist University,,,,,,Hong Kong,,
268,Hong Kong Polytechnic University,Hung Hom,,,,,Hong Kong,,
8558,Hong Kong Polytechnic University,,,,,Kowloon,Hong Kong,,
5676,Hong Kong Univ. of Science and Technology,,,,,,Hong Kong,,China
6166,Hong Kong University,,,,,,Hong Kong,,
4501,Hong Kong University of Science & Technology,,,,,,,,
3826,Hong Kong University of Science & Technology,,,,,,Hong Kong,,China
3244,Hong Kong University of Science and Technology,,,,,,,,
41,Hong Kong University of Science and Technology,,,,,,,,China
2236,Hong Kong University of Science and Technology,,,,,Hong Kong,Clear Water Bay,,
4795,Hong Kong University of Science and Technology,,,Hong Kong,,Kowloon,Clear Water Bay,,
3260,Hong Kong University of Science and Technology,,,,,,Hong Kong,,
2323,Hong Kong University of Science and Technology,,,,,,Hong Kong,,China
5325,Hong Kong University of Science and Technology,,,,,Hong Kong,Hong Kong,,
5604,Hong Kong University of Science and Technology,,,,,Kowloon,Hong Kong,,
3419,HP,,,,,Palo Alto,CA,,USA
9057,HP Laboratories,,,,,Palo Alto,CA,,
2530,HP Labs,,,,,Palo Alto,CA,,
5805,HP Labs,,,,,Palo Alto,CA,,USA
3242,Huazhong University of Science and Technology,,,,,,Hong Kong,,
3241,Huazhong University of Science and Technology,,,,,Wuhan,,,China
1764,Humboldt Universität zu Berlin,,,,,Berlin,,,Germany
1278,Humboldt-Universität und Fachhochschule für Technik und Wirtschaft,,,,,,,,Germany
3079,Humboldt-Universität zu Berlin,,,,,,,,
4488,Humboldt-Universität zu Berlin,,,,,Berlin,,,Germany
388,Humboldt-Universität zu Berlin,,,,,,,,Germany
1277,Humboldt-Universität zu Berlin,Kelman GmbH,,,,Berlin,,,Germany
5240,Humboldt-University zu Berlin,,,,,Berlin,,,Germany
2596,I.I.T. Bombay,,,,,,,,
7676,I.N.R.I.A.,,,,,Rocquencourt,,,France
4664,I.N.R.I.A. Rocquencourt,,,,,,,Cedex,France
3969,IBM,,,,,,,,
8444,IBM,,,,,San Jose ,CA,,USA
5340,IBM,,,,,Beijing,,,China
6892,IBM,,,,,Hawthorne,,,
5339,IBM,,,,,San Jose,CA,,
5780,IBM,,,,,San Jose,CA,,USA
7434,IBM,,,,,San Jose,California,,
5675,IBM,,,,,Toronto,,,Canada
3276,IBM Almaden,,,,,,,,
1856,IBM Almaden,Research Center,,,,San Jose,CA,,
5574,IBM Almaden,,,,,San Jose,CA,,USA
2900,IBM Almaden RC,,,,,San Jose,CA,,
9064,IBM Almaden Res. Ctr.,,,,,,,,
8853,IBM Almaden Research,Almaden,,,,,CA,,
7139,IBM Almaden Research,Center,,,,,,,
2886,IBM Almaden Research,,,,,San Jose,CA,,
7927,IBM Almaden Research Center,,,650 Harry Road,,San Jose,CA,95120,USA
38,IBM Almaden Research Center,,,,,,,,
6588,IBM Almaden Research Center,,,650 Harry Road,,San Jose,CA,,
7849,IBM Almaden Research Center,,,650 Harry Road,,San Jose,CA,95120,
6150,IBM Almaden Research Center,,,,,San Jos,CA,,USA
6440,IBM Almaden Research Center,,,,,San Jose,CA,,USA
1715,IBM Almaden Research Center,,,,,San Jose,CA,,
15,IBM Almaden Research Center,,,,,San Jose,CA,,
3865,IBM Almaden Research Center,,,,,San Jose,CA,,USA
681,IBM Almaden Research Center,,,,,San Jose,California,,
5767,IBM Almaden Research Center,,,,,San Jose,,,USA
9338,IBM Almaden Research Center,,,,,San Jose,,95120,USA
8069,IBM Almaden Research Center,,,,,,,,USA
6549,IBM Almaden Research Center San Jose,,,,,,CA,,
5371,IBM Almaden Research Lab,,,,,San Jose,CA,,
878,IBM Boeblingen Lab,Böblingen,,,,,,,Germany
5062,IBM Boeblingen Laboratory,,,,,Boeblingen,,,Germany
3867,IBM Canada,,,,,Toronto,ON,,Canada
6904,IBM Canada Ltd.,,,1150 Eglinton Ave. E.,,Toronto,Ontario,M3C 1H7,Canada
5889,IBM China Research Lab,,,,,BeiJing,,,China
9721,IBM China Research Lab,,,,,,,,China
6210,IBM China Research Laboratory,,,,,Beijing,,,China
2706,IBM China Research Laboratory,ShangDi,,,,Beijing,,,China
7162,IBM Corporation,,,,,San Jose,CA,,
7186,IBM Database Tech. Inst.,,,,,Austin,TX,,
2376,IBM Deutschland,Böblingen,,,,,,,Germany
1600,IBM Entwicklung GmbH,Böblingen,,,,,,,Germany
110,IBM Germany,,,,,,,,
8439,IBM Germany,,,,,Boeblingen,,,
2902,IBM Germany,,,,,,,,Germany
8368,IBM Haifa Labs,,,,,,,,Israel
8931,IBM Haifa Research Lab,,,,,Haifa,,,Israel
9522,IBM India Research Lab,,,,,,,,India
699,IBM India Research Lab,New Delhi,,,,,,,India
612,IBM India Research Lab,SIRC,,,,,,,
963,IBM India Research Lab.,Hauz Khas,,,,New Delhi,,,India
4126,IBM Indian Research Laboratory,,,,,,,,
2005,IBM Portland,,,,,,,,
555,IBM Research,,,,,,,,
3447,IBM Research,,,,,Haifa,,,Israel
4424,IBM Research,,,,,New Delhi,,,India
8861,IBM Research,,,,,Yorktown Heights,NY,,
8022,IBM Research Laboratory,,,,,Haifa,,,Israel
7141,IBM Silicon Valley,Laboratory,,,,,,,
111,IBM Silicon Valley Lab,,,,,,,,
4456,IBM Silicon Valley Lab,,,,,San Jose,CA,,
350,IBM Silicon Valley Lab,,,,,San Jose,CA,,
9429,IBM Silicon Valley Lab,,,,,San Jose,,95141,USA
8442,IBM Silicon Valley Lab,,,,,,,,USA
7055,IBM Silicon Valley Lab.,,,,,San Jose,CA,,
7356,IBM Silicon Valley Laboratory,,,,,,,,
1579,IBM Silicon Valley Laboratory,,,,,San Jose,CA,,
4606,IBM Silicon Valley Laboratory,,,,,San Jose,California,,
4601,IBM Silicon Valley Labs,,,,,,,,
5837,IBM Sillicon Valley Lab,,,,,San Jose,CA,,USA
9524,IBM Software Group,,,,,,,,
9725,IBM Software Group,,,,,,,,Canada
9526,IBM Software Group,,,,,,,,India
7125,IBM Software Lab,Golden Enclave,,,,Bangalore,,560017,India
4109,IBM T. J. Watson,Research Center,,,,,,,
627,IBM T. J. Watson Res. Center,,,,,,,,
1837,IBM T. J. Watson Research,,,,,Hawthorne,NY,,
448,IBM T. J. Watson Research Center,,,,,,,,
682,IBM T. J. Watson Research Center,,,,,Hawhorne,NY,,
1068,IBM T. J. Watson Research Center,,,,,Hawthorne NY,,,
2038,IBM T. J. Watson Research Center,,,,,Hawthorne,New York,,
363,IBM T. J. Watson Research Center,,,,,Hawthorne,NY,,
5583,IBM T. J. Watson Research Center,,,,,Hawthorne,NY,,USA
6762,IBM T. J. Watson Research Center,,,P.O. Box 704,,Yorktown Heights,NY,,
7098,IBM T. J. Watson Research Center,,,Road,,Hawthorne,NY,,
5656,IBM T. J. Watson Research Center,,,,,Westchester,NY,,USA
263,IBM T. J. Watson Research Center,,,,,Yorktown Heights,NY,,
6254,IBM T. J. Watson Research Center,,,,,Yorktown Heights,NY,,USA
1342,IBM T. J. Watson Research Center,,,,,Yorktown,NY,,
2065,IBM T.J. Watson Research,,,,,Hawthorne,NY,,
5636,IBM T.J. Watson Research,,,,,Hawthorne,NY,,USA
791,IBM T.J. Watson Research Center,,,,,,,,
2330,IBM T.J. Watson Research Center,,,,,Hawthorne,NY,,
7422,IBM T.J. Watson Research Center,,,,,Hawthorne,New York,,
2573,IBM T.J. Watson Research Center,,,,,Hawthorne,NY,,
9315,IBM T.J. Watson Research Center,,,,,Hawthorne,,,USA
8896,IBM T.J. Watson Research Center,,,,,,New York,,
8163,IBM T.J. Watson Research Center,,,,,,,,USA
6490,IBM T.J. Watson Research Center,,,,,Yorktown Heights,NY,,
8737,IBM T.J. Watson Research Center,,,,,Yorktown Heights,,,USA
2268,IBM T.J. Watson Research Ctr.,,,,,Hawthorne,NY,,
9341,IBM T.J. Watson Research Labs,,,,,Yorktown Heights,,10598,USA
7287,IBM Thomas J. Watson Research Center,,,,,Hawthorne,NY,,
5860,IBM Thomas J. Watson Research Center,,,,,Hawthorne,NY,,USA
8765,IBM Thomas J. Watson Research Centre,,,,,Yorktown,,10598,USA
816,IBM TJ Watson Research Center,,,,,,,,
7609,IBM Tokyo Research Lab,,,,,Tokyo,,,Japan
2725,IBM Tokyo Research Laboratory,,,,,,,,
4161,IBM Toronto,,,,,,,,
2031,IBM Toronto Development Lab,,,,,Markham,ON,,Canada
4740,IBM Toronto Development Laboratory,,,,,Markham,ON,,Canada
4737,IBM Toronto Development Laboratory,,,,,,ON,,Canada
2056,IBM Toronto Lab,,,,,,,,
2610,IBM Toronto Lab,,,,,Markham,ON,,
1974,IBM Toronto Lab,,,,,Markham,ON,,Canada
7036,IBM Toronto Lab,,,,,Markham,Ontario,,Canada
4158,IBM Toronto Lab,,,,,Toronto,,,Canada
5800,IBM Toronto Lab,,,,,Toronto,ON,,Canada
3710,IBM Toronto Laboratories,,,,,,,,
1572,IBM Toronto Laboratories,,,,,Markham,Ontario,,Canada
1999,IBM Toronto Laboratory,,,,,,,,
2037,IBM Toronto Laboratory,,,,,Markham,Ontario,,Canada
9593,IBM Toronto Labs,,,,,Markham,Ontario,,Canada
1184,IBM Toronto Software Lab.,,,,,Markham,Ontario,,Canada
1980,IBM Toronto Software Laboratory,,,,,Markham,Ontario,,Canada
4951,IBM Watson,,,,,,,,
9016,IBM Watson,,,,,Hawthorne,NY,,
2356,IBM Watson Research Center,,,,,,,,
4266,IBM Watson Research Center,,,,,Hawthorne,NY,,
2727,IBM Yamato Software Laboratory,,,,,,,,
1355,ICAR - CNR,,,,,Rende,,,Italy
1621,Icar CNR,,,,,,,,
406,Icar CNR,,,,,,,,Italy
9245,ICAR-CNR,Rende (CS),,,,,,,Italy
5346,IIIT-H: Hyderabad,,,,,Hyderabad,,,India
1121,IIT,,,,,Bombay,,,
7930,IIT Bombay,,,,,,,,
237,IIT Bombay,,,,,,,,
3069,IIT Bombay,,,,,,,,India
3994,IIT Bombay,,,,,Mumbaî,,,India
6821,IIT-Bombay,,,,,,,,
381,Indian Institute of Science,,,,,Bangalore,,,India
132,Indian Institute of Technology,,,,,Bombay,,,
779,Indian Institute of Technology,,,,,Bombay,,,India
7864,Indian Institute of Technology,,,,,Bombay,,,India
4481,Indian Institute of Technology,Powai,,Bombay,,Mumbai,,,
5076,Indian Institute of Technology,,,,,Mumbai,,,India
8207,Indian Institute of Technology,,,,,New Delhi,,,India
3619,Indian Institute of Technology Bombay,,,,,,,,
202,Indian Institute of Technology Bombay,,,,,Mumbai,,,India
7022,Indian Institute of Technology-Bombay,Powai,,,,Mumbai,,,India
8041,Indian Institute of Technology---Mumbai,,,,,Mumbai,,,India
5222,Indiana University,,,,,Bloomington,IN,,
4694,Indiana University at Bloomington,,,,,,,,
2795,Infobright Inc.,,,,,,,,Canada
2793,Infobright Inc.,,,,,,,,Poland
6258,Infobright Inc.,,,,,Toronto,,,Canada
6257,Infobright Inc.,,,,,Warsaw,,,Poland
7809,Infolab,Department of Information Systems and Management,Tilburg University,5000 LE,,Tilburg,,PO Box 90153,The Netherlands
8540,INFOLAB,Tilburg University,,5000 LE,,Tilburg,,,The Netherlands
6627,InFomix Software,,,,,,,,
8504,Informatics Laboratory,Agricultural University of Athens,,,,,,,Greece
6682,Informatik V,RWTH Aachen,,,,,,,Germany
1811,Information Management & System,Group Microsoft Research Asia,,,,Beijing,,,China
1607,Information School,Renmin University of China,,,,Beijing,,,China
7991,Information Sciences Institute,University of Southern California,,,,Marina del Rey,CA,90292,USA
8244,Information Sciences Institute,University of Southern California,,,,,,,USA
8029,Information Sciences Institute,USC,,California,,Marina del Rey,CA,,
6602,Information Sciences Research Center,Bell Laboratories,,600 Mountain Avenue,,Murray Hill,NJ,,
6804,Information Sciences Research Center,Bell Laboratories,,,,Murray Hill,NJ,,
8373,Information Systems Department,University of Maryland Baltimore County,,,,,,,USA
976,Information Technology Lab.,LG Electronics Institute of Technology,,,,,,,
3413,Informix,,,,,Menlo Park,CA,,USA
3731,Informix Software,,,,,Los Gatos,CA,,USA
3503,Informix Software Inc,,,,,Los Gatos,,,USA
1300,INRIA,,,,,,,,
6607,INRIA,,,BP 105,,Le Chesnay,,78153,France
6856,INRIA,,,Domaine de Voluceau BP 105,Cedex,Le Chesnay,,78153,France
8025,INRIA,,,,,,,,France
5148,INRIA,,,,,Nantes,,,France
8179,INRIA,,,Cedex,,Orsay,,,France
3823,INRIA - CNAM,,,,,,,,
3770,INRIA  Rocquencourt,,,,,,,,
475,INRIA Futurs,,,,,,,,
2222,INRIA Futurs,,,,,,,,France
3754,INRIA Lorraine,,,,,,,,
3407,INRIA Rocquencourt,,,,,,,,
7793,INRIA Rocquencourt,,,,,Le Chesnay,,78153,France
1723,INRIA Rocquencourt,Domaine de Voluceau,,,,Le Chesnay,,,France
1496,INRIA Rocquencourt,,,,,,,,France
2649,INRIA Rocquencourt,Le Chesnay,,,,,,,France
6510,INRIA Rooquencourt,,,BP 105,Le Chesnay Cedex,,,78153,France
7731,INRIA Roquencour,,,,,,,,
7328,INRIA&Tel-Aviv U.,,,,,,,,
8295,INRIA-Futurs,,,Cedex,,Orsay,,,France
2687,INRIA-Orsay,,,,,,,,France
1225,INRIA-Rocquencourt,,,Cedex,,Le Chesnay,,,France
1143,Institut förmatik,TU-München,Orleansstraße,,,München,,,Germany
1603,Institut für Informatik,Ludwig-Maximilians-Universität München,,,,,,,
2648,Institut für Informatik,TU München,,,,,,,Germany
7655,Institut für Informatik,Universität Freiburg,,,,Freiburg,,,Germany
1965,Institut für Informatik,University of Tübingen,,,,Tübingen,,,Germany
7593,Institut fur Informatik,Technical University of Munich,,Orleanstr. 34,,Munich,,D-81667,Germany
9459,Institut Télécom,Télécom ParisTech,CNRS LTCI,,,Paris,,,France
6459,Institute AIFB,Universität Karlsruhe,,,,Karlsruhe,,,Germany
6697,Institute for Advanced Computer Studies and Department of Computer Science,University of Maryland,College Park,,,,,,
6839,Institute for Computer Science,University of Munich,Oettingenstr. 67,,,München,,D-80538 ,Germany
6494,Institute for Computer Science,University of Munich,Oettingenstr. 67,,,Munich,,D-80538,Germany
831,Institute for Program Structures and Data Organisation,Universität Karlsruhe (TH),,,,Karlsruhe,,,Germany
1135,Institute of Communication and Computer Systems and Department of Electrical and Computer Engineering,National Technical University of Athens,Zographou,,,Athens,,,Hellas
8744,Institute of Communication and Computer Systems and School of Electrical and Computer Engineering,National Technical University of Athens,,,,Athens,,15773,Greece
1485,Institute of Communication and Computer Systems and School of Electrical and Computer Engineering,National Technical University of Athens,Zographou,,,Athens,,,Hellas
6509,Institute of Computer Science,Forth,,P.O Box 1385,,Heraldion,,,Greece
1041,Institute of Computer Science,University of Augsburg,Augsburg,,,,,,Germany
7783,Institute of Computer Science and Information Engineering,National Chiayi University,Chiayi,,,,,,Taiwan
7963,Institute of Computing,University of Campinas,Caixa Postal 6176,SP,,Campinas,,13081-970,Brazil
8459,Institute of Computing Technology,Chinese Academy of Sciences and Graduate School,Chinese Academy of Sciences,Zhongguancun,,Beijing,,,P.R.China
6531,Institute of Industrial Science,University of Tokyo,,,,,,,JAPAN
1240,Institute of Industrial Science,University of Tokyo,Komaba,Meguro-ku,,Tokyo,,,
7781,Institute of Information Engineering,National Cheng Kung University,,,,Tainan,,,
921,Institute of Information Science,Academia Sinica,,,,Taipei,,,Taiwan
923,Institute of Information Science,Academia Sinica,Taiwan and Department of Computer Science and Information Engineering,,National Taiwan University of Science and Technology,Taipei,,,Taiwan
4416,Institute of Information Systems,ETH Zurich,,,,,,,Switzerland
450,Institute of Information Systems,ETH Zurich,,,,Zurich,,,Switzerland
7735,Institute of Information Systems,Faculty of Economics,Humboldt University Berlin,,,Berlin,,10178,Germany
167,Institute of Information Systems,,,,,,,,Switzerland
2154,Institute of Parallel and Distributed Systems,University of Stuttgart,,,,Stuttgart,,,Germany
7734,Institute of Pedagogy and Informatics,Faculty of Philosophy IV,Humboldt University Berlin,,,Berlin,,10117,Germany
4342,Institute of Remote Sensing Applications,Chinese Academy of Sciences,,,,Beijing,,,
9461,Institute of Technical Medicine,Faculty of Science and Technology,University of Twente,,,Enschede,AE,7500,The Netherlands
1778,Instituto de Informática,Universidade Federal do Rio Grande do Sul - UFRGS,,,,,,,Brazil
8887,Integrated Data System Department,Siemens Corporate Research,,,,Princeton,,8540,USA
2183,Integrated Media Systems Center & Computer Science Department,University of Southern California,,,,Los Angeles,CA,,
2780,Intel Corporation,,,,,,,,
176,Intel Corporation,,,,,Santa Clara,CA,,
2,Intel Research,,,,,Berkeley,,,
8198,Intel Research,,,,,Berkeley,CA,,
9794,Intel Research,,,,,Berkeley,CA,,USA
8000,Intel Research,,,Pennsylvania,,Pittsburgh,PA,,
548,Intel Research Berkeley,,,,,,,,
5486,Intel Research Berkeley,,,,,Berkeley,CA,,
7509,Intel Research Laboratory,,,,,Berkeley,CA,,
1698,Intel Research Pittsburgh,,,,,,,,
246,Intel Research Pittsburgh,,,,,Pittsburgh,PA,,
6059,Intel Research Pittsburgh,,,,,Pittsburgh,PA,,USA
7934,International Institute of Information Technology,,,,,Gachhilbowli,,5000019,India
8266,ISLA,Universiteit van Amsterdam,,,,,,,The Netherlands
949,ISLA,University of Amsterdam,,,,,,,The Netherlands
5273,ISTI-CNR,,,,,Pisa,,,Italy
4350,itr-rescue.org,,,,,,,,
4349,itr-rescue.org (UC Irvine),,,,,,,,
310,i-TV-T AG,,,,,,,,Germany
180,i-TV-T AG,Unterföhring,,,,,,,
6990,Japan Advanced Institute of Science and Technology,,,,,,,,
1713,Japan Advanced Institute of Science and Technology,Asahidai,Tatsunokuchi,,,,Ishikawa,,Japan
7997,Japan Advanced Institute of Science and Technology,,,,,,Ishikawa,,Japan
1704,Johns Hopkins University,,,,,,,,
2955,Johns Hopkins University,,,,,Baltimore,MD,,
4838,KAIST,,,,,,,,
7024,KAIST,,,,,Taejon,,,KOREA
1279,Kelman GmbH Berlin,,,,,Berlin,,,Germany
170,Kent State University,,,,,Kent,OH,,
5697,Kent State University,,,,,Kent,OH,,USA
9485,Key Labs of Data Engineering and Knowledge Engineering,MOE,Renmin University of China,People's Republic of China,,Beijing,,,
6256,Kickfire,,,,,Santa Clara,CA,,USA
6047,King Abdullah University of Science and Technology,,,,,Jedah,,,Saudi Arabia
6186,King Abdullah University of Science and Technology,,,,,,,,Saudi Arabia
3858,Korea Advanced Institute of Science and Technology,,,,,,,,
7413,Korea Advanced Institute of Science and Technology,,,373-1 Gusong-dong,Yusong-gu,Daejeon,,305-701,South Korea
742,Korea Advanced Institute of Science and Technology,,,,,Daejeon-City,,,Korea
5256,Korea Advanced Institute of Science and Technology,,,,,Daejeon,,,South Korea
7113,Korea Advanced Institute of Science and Technology,,,,,Taejon,,,Korea
255,Korea Advanced Institute of Science and Technology,Yusong-gu,,,,Taejon,,,Korea
92,Korea Advanced Institute of Science and Technology (KAIST),,,,,Daejeon,,,Korea
5625,Korea Advanced Institute of Science and Technology (KAIST),,,,,Daejeon,,,South Korea
7094,Korea Advanced Institute of Science and Technology (KAIST),,,,,Taejon,,,Korea
6587,Korea Advanced Institute of Science and Technology and Advanced Information Technology Research Center at KAIST,,,,,Taejon,,,KOREA
9494,Kowloon Tong,Hong Kong Baptist University,,Sir Run Run Shaw Building,Room 707,,Hong Kong,,
1194,Kyoto University,School of Informatics,Yoshida-Honmachi,Sakyo-ku,,Kyoto,,,Japan
7428,Kyoto University,Yoshida-Honmachi,Sakyo-ku,,,Kyoto,,,Japan
5313,Kyungpook National University,,,,,Daegu,,,South Korea
2319,Kyungpook National University,Republic of Korea,,,,,,,
4886,L3S,University of Hannover,,,,,,,
462,L3S Research Center,,,,,Hanover,,,Germany
3315,L3S/University of Hannover,,,,,Hannover,,,Germany
8258,La Trobe University,,,,,,,,Australia
8148,Laboratoire de Recherche en Informatique,Université de Paris-Sud,,,,,,,France
2134,Laboratoire LIMOS,ISIMA,,,,Clermont-Ferrand,,,France
1853,Laboratory for Foundations of Computer Science,School of Informatics,University of Edinburgh,,,,,,UK
1350,Laboratory for Foundations of Computer Science,University of Edinburgh,,,,Edinburgh,,,UK
9414,Lamsade,University of Paris-Dauphine,,,,Paris,,,France
2123,Large Scale Distributed Information Systems (LSDIS) Lab,Computer Science Department,University of Georgia,,,Athens,GA,,
7877,Large Scale Distributed Information Systems Lab,Computer Science Department,University of Georgia,,,Athens,GA,30602-7404,USA
1707,Lawrence Berkeley National Laboratory,,,,,Berkeley,CA,,
3614,Lawrence Berkeley National Laboratory,,,,,Berkeley,CA,,USA
8550,Lehrstuhl für Informationssysteme,Universität des Saarlandes,,,,Saarbrücken,,,Germany
7940,Lehrstuhl für Praktische Informatik III,Universität Mannheim,,,,Mannheim,,68131,Germany
5242,Leibniz University Hanover,Hanover,,,,,,,Germany
8341,LG Datenbanksysteme für neue Anwendungen,FernUniversität Hagen,,,,,,,Germany
823,LG Electronics,Inc.,Gangnam-gu,,,Seoul,,,Korea
8142,LIMOS,Université Blaise Pascal,,,,,,,France
6352,Lincoln Labs,Massachusetts Institute of Technology,,,,Cambridge,MA,,USA
7041,lndian Institute of Science,,,,,,,,
2852,LORIA-INRIA,,,,,,,,
580,LRI,Université Paris-Sud,,,,Orsay,,,France
2221,LRI - Univ. Paris-Sud,,,,,,,,France
6475,Lucent Bell Labs,,,600 Mountain Avenue,,Mumbai,NJ,400076,
1304,Lucent Bell Labs,,,,,Murray Hill,NJ,,
1020,Lucent Technologies,Bell Laboratories,,,,,,,
6783,Lucent Technologies,Bell Laboratories,,,,Murray Hill,NJ,,
7392,Lucent Technologies,Bell Labs,,,,,,,
6784,Lucent Technologies,,,,,Murray Hill,NJ,,
983,Lucent Technologies - Bell Laboratories,,,,,Murray Hill,NJ,,
4397,Lucent Technologies-Bell Laboratories,,,,,,,,
5002,Ludwig-Maximilians-University,,,,,Munich,,,Germany
1402,M.I.T,,,,,,,,
1013,M.I.T.,,,,,,,,
8768,Management Information Systems Department,Haifa University,,,,Haifa,,,Israel
1428,Martin-Luther-University of Halle,,,,,,,,
2295,Massachusetts Institute of Technology,,,,,,,,
8195,Massachusetts Institute of Technology,,,,,Cambridge,MA,,
5807,Massachusetts Institute of Technology,,,,,Cambridge,MA,,USA
6140,Massachusetts Institute of Technology,,,,,Canbridge,MA,,USA
869,Mathematics & Computing Technology,Boeing Phantom Works,,,,Seattle,Washington,,
7784,Mathematics and Computing Technology,Phantom Works,The Boeing Company,,,Bellevue,Washington,,USA
8417,Max Planck Institut fur Informatik,,,,,Saarbrücken,,,Germany
4749,Max Planck Institute,,,,,Saarbruecken,,,Germany
771,Max Planck Institute for Informatics,,,,,Saarbrücken,,,Germany
3160,Max Planck Institute for Informatics Campus,,,,,Saarbrücken,,,Germany
621,Max-Planck Institute for Computer Science,,,,,Saarbrücken,,,Germany
2116,Max-Planck Institute for Computer Science,,,,,Saarbruecken,,,Germany
192,Max-Planck Institute for Informatics,,,,,Saarbrücken,,,Germany
189,Max-Planck Institute for Informatics,,,,,Saarbruecken,,,Germany
1879,Max-Planck Institute of Computer Science,,,,,Saarbruecken,,,Germany
5518,Max-Planck-Institut fü Informatik,,,,,Saarbrücken,,,Germany
146,Max-Planck-Institut für Informatik,,,,,,,,Germany
401,Max-Planck-Institut für Informatik,,,,,Saarbrücken,,,Germany
4484,McGill Univ.,,,,,Montreal,,,
9286,McGill University,,,,,,,,Canada
7909,McGill University,,,,,Montreal,Quebec,,Canada
8310,Michigan State University,East Lansing,,,,,MI,,
2839,Micorsoft Research,,,,,,,,
8240,Microarchitecture Research Lab,Intel Corp.,,,,,,,USA
128,Microsoft,,,,,,,,
5138,Microsoft,,,,,Redmond,WA,,
5820,Microsoft,,,,,Redmond,WA,,USA
3440,Microsoft,,,,,,,,USA
9677,Microsoft Audience Intelligence,,,,,,,,
9465,Microsoft Corp,,,,,Redmond,,,USA
868,Microsoft Corp.,,,,,,,,
335,Microsoft Corp.,One Microsoft Way,,,,Redmond,WA,,
171,Microsoft Corp.,,,,,Redmond,WA,,
5900,Microsoft Corp.,,,,,Redmond,WA,,USA
2549,Microsoft Corporation,,,,,,,,
1977,Microsoft Corporation,One Microsoft Way,,,,Redmond,WA,,
7751,Microsoft Corporation,One Microsoft Way,shankarp,,,Redmond,WA,98052-6399,USA
352,Microsoft Corporation,One Microsoft Way,,,,Redmond,Washington,,
1222,Microsoft Corporation,,,,,Redmond,,,
6093,Microsoft Corporation,,,,,Redmond,,,USA
1599,Microsoft Corporation,,,,,Redmond,WA,,
5843,Microsoft Corporation,,,,,Redmond,WA,,USA
8162,Microsoft Corporation,,,,,,,,USA
11,Microsoft Research,,,,,,,,
9210,Microsoft Research,,,One Microsoft Way,,Redmond,WA,,
9211,Microsoft Research,,,One Microsoft Way,,Redmond,WA,,
9138,Microsoft Research,,,,,Redmond,WA,,
6551,Microsoft Research,,,Suite 830,301 Howard St.,San Francisco,CA,,
8652,Microsoft Research,,,,,Cambridge,,CB3 0FB,UK
714,Microsoft Research,,,,,Cambridge,,,United Kingdom
8289,Microsoft Research,,,,,Mountain View,CA,,
6048,Microsoft Research,,,,,Mountain View,CA,,USA
6443,Microsoft Research,,,,,Mountain View,,,USA
767,Microsoft Research,,,One Microsoft Way,,Redmond,WA,,
8021,Microsoft Research,,,One Microsoft Way,,Redmond,WA,98052,USA
6481,Microsoft Research,,,One MicrosoftWay,,Redmond,WA,,
1507,Microsoft Research,,,,,Redmond,,,
8843,Microsoft Research,,,,,Redmond,WA,,USA
6042,Microsoft Research,,,,,Redmond,,,USA
1255,Microsoft Research,,,,,Redmond,WA,,
7876,Microsoft Research,,,,,Redmond,WA,98052-6399,USA
3428,Microsoft Research,,,,,Redmond,WA,,USA
8031,Microsoft Research,Redmond,,,,WA,Washington,,
6593,Microsoft Research,,,,,San Francisco,CA,,
8429,Microsoft Research,,,,,,,,USA
2283,Microsoft Research Asia,,,,,,,,
5173,Microsoft Research Asia,,,,,Beijing,,,China
5938,Microsoft Research India,,,,,Bangalore,,,India
9055,Microsoft Research Silicon Valley,,,,,Mountain View,CA,,
5107,Microsoft Search Labs,,,,,Mountain View,CA,,
4863,Microsoft Search Labs,,,,,Mountain View,California,,
9433,Microsoft Search Labs,,,,,Mountain View,,94043,USA
9659,Microsoft SQL Server,,,,,,,,
2765,Microsoft SQL Server,,,One Microsoft Way,,Redmond,WA,,
1128,Middle East Technical University,,,,,,,,
7131,Middle East Technical University (METU),,,,,Ankara,,6531,Turkiye
5936,Mirosoft Research India,,,,,Bangalore,,,India
1834,MIT,,,,,,,,
5128,MIT,,,,,Boston,MA,,
5005,MIT,,,,,Cambridge,MA,,
5803,MIT,,,,,Cambridge,MA,,USA
9273,MIT,,,,,Cambridge,,,USA
645,MIT Computer Science and Artificial Intelligence Laboratory,,,,,Cambridge,MA,,
4386,MIT Computer Science and Artificial Intelligence Laboratory (CSAIL),,,,,Cambridge,MA,,
230,MIT CSAIL,,,,,,,,
153,MIT CSAIL,,,,,Cambridge,MA,,
5757,MIT CSAIL,,,,,Cambridge,MA,,USA
4591,Mitre Corporation,,,,,,,,
8214,Monmouth University,West Long Branch,,,,,NJ,,
2647,Motorola Labs,,,,,Schaumburg,IL,,
1955,MPI Informatik,,,,,Saarbruecken,,,Germany
8376,MSIS Department,Rutgers University,,,,,,,USA
3222,Nanyang Technological University,,,,,,,,Singapore
5516,Nanyang Technological University,,,,,Singapore,,,Singapore
3636,Nara Institute of Science and Technology,,,,,,,,
7802,Nara Institute of Science and Technology,,,8916-5 Takayama,,Ikoma,Nara,630-0101,Japan
3366,Nara Institute of Science and Technology,,,,,,,,Japan
4586,Nasa Ames,,,,,,,,
4593,NASA Ames Research Center,,,,,Moffett Field,CA,,
3397,NASA Goddard Space Flight Center Greenbelt,,,,,,MD,,USA
1287,National Biomedical Computing Resource,,,,,,,,
1683,National Center for Biomedical Research,University of California San Diego,,,,,,,
8841,National ICT Australia,Australian Technology Park,,,,Eveleigh,NSW,1430,Australia
9054,National Taiwan University,,,,,Taipei,,,Taiwan
4431,National Technical University of Athens,,,,,Athens,,,GR
9321,National Technical University of Athens,,,,,Athens,,,Greece
8609,National Technical University of Athens,IBM Almaden Research Center,,Athens,,San Jose,,15772,Greece
6407,National Tsing Hua University,,,,,Hsinchu,,,Taiwan Roc
2439,National U. of Singapore,,,,,,,,
687,National Univ. of Singapore,,,,,,,,
3172,National Univ. of Singapore,,,,,,,,Republic of Singapore
5126,National Univeristy of Singapore,,,,,Singapore,,,Singapore
2418,National University of Singapor,,,,,,,,
52,National University of Singapore,,,,,,,,
738,National University of Singapore,Department of Computer Science,,,,,,,Singapore
4574,National University of Singapore,Kent Ridge,,,,,,,Singapore
8785,National University of Singapore,Law Link,,,,,,,Singapore
200,National University of Singapore,,,,,,,,Singapore
5291,National University of Singapore,,,,,Singapore,,,Singapore
4953,Natl University of Singapore,,,,,S'pore,,,Singapore
8997,Nat'l University of Singapore,,,,,,,,
4009,Natl. University of Singapore,,,,,,,,
3841,NCR,,,,,El Segundo,CA,,USA
3840,NCR,,,,,San Diego,CA,,USA
1472,NCR Advance Development Lab,,,,,,,,
2057,NCR Corporation,Teradata Research and Development,,,,San Diego,California,,
3673,NEC,,,,,San Jose,CA,,USA
505,NEC Laboratories America,,,,,Cupertino,CA,,
5777,NEC Laboratories America,,,,,Cupertino,CA,,USA
685,NEC Laboratories America Inc.,,,,,Princeton,NJ,,
1665,NEC Laboratories America Inc.,,,,,Cupertino,California,,
9099,NEC Labs America,,,,,,,,
961,NEC Research Institute,,,,,Princeton,NJ,,
3491,NEC Research Institute,,,,,Princeton,NJ,,USA
4506,New Jersey Inst. of Technology,,,,,,,,
3405,New Jersey Institute of Technology,,,,,,,,
9319,New Jersey Institute of Technology,,,,,Newark,,,USA
3412,New York University,,,,,,,,
1412,New York University,,,,,,New York,,
4751,New York University,,,,,New York City,NY,,
1458,New York University,,,,,,NY,,
6353,New York University,,,,,,NY,,USA
9354,NICTA,University of Melbourne,,,,Parkville,,,Australia
8500,NICTA Victoria Laboratory,Department of Computer Science and Software Engineering,University of Melbourne,,,,,,Australia
2354,North Carolina State University,,,,,,,,
5695,North Carolina State University,,,,,Raleigh,NC,,USA
8358,North Carolina State University,,,,,,,,USA
4449,Northeastern University,,,,,,,,
277,Northeastern University,,,,,Boston,MA,,
2281,Northeastern University,,,,,Liaoning,,,China
5638,Northeastern University,,,,,Shenyang,,,China
3608,Northeastern University Boston,,,,,,,,
2966,Northwestern University,,,,,Evanston,IL,,
3365,NTT Cyber Solutions Laboratories,,,,,,,,
3635,NTT Cyber Space Laboratories,,,,,,,,
7801,NTT Cyber Space Laboratories,,,1-1 Hikari-no-oka,,Yokosuka,Kanagawa,239-0847,Japan
8122,NTT Cyber Space Laboratories,NTT Corporation,,,,Kanagawa,,,Japan
4238,NTT Cyber Space Labs.,,,,,Kanagawa,,,Japan
3430,NUS,,,,,,,,
5234,NUS,,,,,Singapore,,,Singapore
3686,NYU,,,,,,,,
1962,OGI School of Science & Engineering at,Oregon Health & Science University,Beaverton,,,,Oregon,,
2101,OGI/OHSU,,,,,,,,
2990,Ohio State University,,,,,,,,
76,Ohio State University,,,,,Columbus,OH,,
1831,OHSU/OGI,,,,,,,,
7122,One Microsoft Way,,,,,Redmond,WA,,
3734,Oracle,,,,,,,,
2218,Oracle,,,,,,,,
2580,Oracle,,,,,Nashua,NH,,
3896,Oracle,,,,,Nashua,NH,,USA
343,Oracle,,,One Oracle Drive,,Nashua,NH,,
370,Oracle,,,,,Redwood Shores,CA,,
5614,Oracle,,,,,Redwood Shores,CA,,USA
6036,Oracle,,,,,Redwood,CA,,Switzerland
9270,Oracle,,,,,St. Louis,,,USA
4208,Oracle +Corp.,,,,,Redwood Shores,CA,,
9528,Oracle Corp.,,,,,,,,
9532,Oracle Corp.,,,,,,,,
2808,Oracle Corp.,,,,,Redwood Shores,CA,,
3517,Oracle Corporation,,,,,,,,
6905,Oracle Corporation,,,,,,,,
7166,Oracle Corporation,,,,,,CA,,
7148,Oracle Corporation,,,,,Nashua,NH,,
1990,Oracle Corporation,,,,,Nashua,NH,,
3550,Oracle Corporation,,,,,Nashua,NH,,USA
7146,Oracle Corporation,NEDC,,,,Nashua,NH,,
6623,Oracle Corporation,New England Development Center,,One Oracle Driv e,,Nashua,NH,,
7664,Oracle Corporation,,,One Oracle Drive,,Nashua,NH,3062,USA
1219,Oracle Corporation,,,Oracle Parway,,Redwood Shores,CA,,
319,Oracle Corporation,,,,,Redwood City,CA,,
6320,Oracle Corporation,,,,,Redwood City,CA,,USA
1592,Oracle Corporation,,,,,Redwood Shores,,,
311,Oracle Corporation,,,,,Redwood Shores,CA,,
806,Oracle Corporation,,,,,Redwood Shores,CA,,
3391,Oracle Corporation,,,,,Redwood Shores,CA,,USA
8513,Oracle Corporation,,,,,,,,USA
6315,Oracle USA,,,,,Nashua,NH,,USA
9646,Oracle USA,,,,,Redwood City,CA,,
5873,Oracle USA,,,,,Redwood City,CA,,USA
792,Oracle USA,,,,,Redwood Shores,CA,,
2553,Oracle USA 400,,,Oracle Parkway,,Redwood Shores,CA,,
4976,Oracle USA Inc,,,,,Redwood Shores,CA,,
6652,Oregon Graduate Institue of Science Technology,CSE,,20000 N.W. Walker Road,P.O.Box 91000,Portland,,,
7592,Oregon Graduate Institute of Science and Technology,,,,,,,,
9089,Oxford University,,,,,,,,
3299,Oxford University,,,,,Oxford,,,UK
6141,Oxford University,,,,,Oxford,,,United Kingdom
5670,Oxford University,,,,,Oxford,,,United Kngdm
5162,Peking University,,,,,Beijing,,,China
6326,Pennsylvania State,University Park,,,,,PA,,USA
3940,Pennsylvania State University,,,,,,,,
5079,Pennsylvania State University,,,,,,PA,,
2274,Pennsylvania State University,University Park,,,,,PA,,
9422,Pennsylvania State University,University Park,,,,,,,USA
1296,Persistent Systems,,,,,Pune,,,India
2051,Persistent Systems Private Limited,Bhageerath,,,,Pune,,,India
1312,Persistent Systems Pvt. Ltd.,,,,,Pune,,,
8726,Philipps Universität Marburg,,,,,,,,Germany
8186,Philipps University,,,,,Marburg,,,Germany
4291,Philipps University Marburg,,,,,,,,
7377,Philipps-University Marburg,,,,,Marburg,,,Germany
4682,Piazza Leonardo da Vinci,,,,,Milano,,,Italy
8741,Pisa KDD Laboratory,Computer Science Department,University of Pisa,,,Pisa,,56127,Italy
8739,Pisa KDD Laboratory,ISTI---CNR,,,,Pisa,,56124,Italy
8738,Pisa KDD Laboratory,ISTI---CNR,,,,Pisa,,56124,Italy
6597,Ploytechnic Univ.,,,,,,,,
4854,Pohang University of Science and Technology,,,,,,,,
8493,Pohang University of Science and Technology,,,,,Gyungbuk,,,Korea
3842,Politecnico di Milano,,,,,,,,
7776,Politecnico di Milano,Dipartimento di Elettronica e Informazione,Piazza L. Da Vinci,32,20133 Milano,Italy,,,
7814,Politecnico di Milano,Dipartimento di Elettronica e Informazione,Piazza Leonardo da Vinci 32,20133 Milano,Italy,,,,
6334,Politecnico di Milano,,,,,Milan,,,Italy
4618,Politecnico di Milano,,,,,Milano,,,Italy
7740,Politecnico di Milano,,,,,Milano,,,Italy
9044,Politecnico di Milano,Piazza Leonardo da Vinci,,,,Milano,,,Italy
7583,Politecnico di Torino,,,,,Torino,,,Italy
8111,Politecnico di Torino,,,,,Turin,,,Italy
9382,Polytechnic Institute of New York University,,,,,Brooklyn,,11201,USA
4829,Polytechnic University,,,,,,,,
9445,Pontificia Universidad Católica de Chile,,,,,,,,
9404,Pontificia Universidad Católica de Chile,,,,,,,,Chile
2821,Portland State University,,,,,,,,
5445,Portland State University,,,,,Portland,OR,,
3059,Portland State University,,,,,Portland,OR,,
9796,Portland State University,,,,,Portland,OR,,USA
6555,Praktische Informatik IV,FernUniversitäit Hagen,,,,Hagen,,D-58084,Germany
4985,Princeton University,,,,,,,,
2480,Princeton University,,,,,Princeton,NJ,,
5997,Princeton University,,,,,Princeton,NJ,,USA
3961,PRISM Laboratory,University of Versailles,,,,,,,France
988,PRISM Laboratory,,,,,Versailles,,,France
3689,Procom Technology,,,,,Irvine,CA,,USA
8026,Procom Technology Inc.,,,California,,Irvine,CA,,
6540,PSPL Ltd. Pune,,,,,,,,
9636,PSU,,,,,,,,
809,PTU NetWeaver AS TREX,SAP AG,,,,Walldorf,,,Germany
3279,PUC Chile,,,,,,,,
1394,Purdue University,,,,,,,,
4748,Purdue University,,,,,Lafayette,IN,,
8061,Purdue University,,,,,,,,USA
272,Purdue University,,,,,West Lafayette,,,
8,Purdue University,,,,,West Lafayette,IN,,
5795,Purdue University,,,,,West Lafayette,IN,,USA
436,Purdue University,,,,,West Lafayette,Indiana,,
8761,Purdue University,,,,,West Lafayette,,,USA
7284,Purdue University West Lafayette,,,,,,IN,,
8619,Queen Mary,University of London,,,,London,,E1 4NS,UK
9502,R.A. Computer Technology Institute and Computer Engineering and Informatics Department,University of Patras,,,,Rio,,,Greece
251,RA Computer Technology Institute,,,,,Athens,,,Greece
2438,Renmin University of China,,,,,,,,
2425,Renmin University of China,,,,,Beijing,,,China
4564,Rensselaer Polytechnic Institute,Troy,,,,,New York,,
3196,Rensselaer Polytechnic Institute,Troy,,,,,NY,,
6635,Retail Solutions Group,NCR Corporation,,,,,,,
5716,RMIT University,,,,,Melbourne,,,Australia
8789,RMIT University,,,,,Victoria,,,Australia
7792,Robert H. Smith School of Business and UMIACS,University of Maryland,,,,College Park,MD,20742,USA
8369,Robotics Institute,Carnegie-Mellon University,,,,,,,
4,Rutgers University,,,,,,,,
8204,Rutgers University,,,,,Murray Hill,NJ,,
8759,Rutgers University,,,,,Newark,,,USA
9434,Rutgers University,,,,,Newark,,7102,USA
4476,Rutgers University,Piscataway,,,,,NJ,,
5866,Rutgers University,Piscataway,,,,,NJ,,USA
8914,RWTH,,,,,Aachen,,,Germany
3402,RWTH Aachen,,,,,,,,
1459,RWTH Aachen,Informatik V (Information Systems),,,,Aachen,,,Germany
2626,RWTH Aachen University,,,,,Aachen,,,Germany
114,RWTH Aachen University,,,,,,,,Germany
5098,Saarland University,,,,,Saarbrücken,,,Germany
2681,Saarland University Database Group,,,,,Saarbrücken,,,Germany
824,Samsung Electronics,,Gyeonggi-Do,,,Hwasung,,,Korea
5840,Samsung Electronics Co.,Ltd.,Hwang,,,,,,South Korea
6276,Samsung Electronics Co.,Ltd.,,,,Hwasung-City,,,South Korea
1288,San Diego Supercomputer Center,,,,,,,,
1684,San Diego Supercomputer Center,University of California San Diego,,,,,,,
7656,San Diego Supercomputer Center,University of California San Diego,,,,La Jolla,CA,,
1016,San Diego Supercomputer Center,University of California,,,,San Diego,,,
882,San Diego Supercomputer Center,University of California,,,,San Diego,CA,,
2097,Santa Clara University,,,,,,,,
8257,Santa Clara University,,,,,Santa Clara,CA,,
4592,SAP,,,,,,,,
3102,SAP AG,,,Dietmar-Hopp-Allee,,Walldorf,,,Germany
6324,SAP AG,,,,,Hidelberg,,,Germany
810,SAP AG,,,,,Walldorf,,,Germany
9368,SAP AG,,,,,Walldorf,,69190,Germany
4617,SAP Labs,,,,,Palo Alto,CA,,
2039,SAP Research Center Palo Alto,LLC,,,,Palo Alto,CA,,
8717,SAPIENZA Università di Roma,,,,,Roma,,,Italy
1954,School of Comp. Sci.,Florida Intl. University,,,,Miami,FL,,
8371,School of Computer and Communication Sciences,École Polytechnique Fédérale de Lausanne,(EPFL),,,,,,Switzerland
2637,School of Computer and Communication Sciences,,,,,,,,Switzerland
8872,School of Computer and Communication Sciences EPFL,,,,,Lausanne,,1010,Switzerland 
7939,School of Computer Engineering,Nanyang Technological University,,,,,,,
8689,School of Computer Engineering,Nanyang Technological University,,,,Singapore,,,Singapore
9327,School of Computer Engineering,Nanyang Technological University,,Singapore 639798,,,,,Singapore
6562,School of Computer Engr,Seoul National University,,,,Seoul,,,Korea
7670,School of Computer Science,Carnegie Mellon University,,5000 Forbes Avenue,,Pittsburg,,15213-3891,USA
6472,School of Computer Science,Carnegie Mellon University,,,,Pittsburgh,PA,,
1857,School of Computer Science,Florida International University,,,,Miami,FL,,
8819,School of Computer Science,The University of Oklahoma,Norman,,,,,73019,USA
780,School of Computer Science,University of Manchester,,,,Manchester,,,UK
9335,School of Computer Science,University of Manchester,,,,Manchester,,M13 9PL,UK
1926,School of Computer Science,University of Waterloo,,,,,,,
8059,School of Computer Science,University of Waterloo,,,,,,,Canada
1448,School of Computer Science,University of Waterloo,,,,Waterloo,,,Canada
8538,School of Computer Science,University of Waterloo,,,,Waterloo,,N2L 3G1,Canada
1261,School of Computer Science & Engineering,The University of New South Wales,,,,Sydney,NSW,,Australia
8352,School of Computer Science and Engineering,The Hebrew University of Jerusalem,,,,,,,Israel
1326,School of Computer Science and Engineering,The Hebrew University of Jerusalem,,,,Jerusalem,,,Israel
7771,School of Computer Science and Engineering,The University of New South Wales,,,,,NSW,2052,Australia
8842,School of Computer Science and Engineering,University of New South Wales,NICTA,,,Sydney,NSW,2052,Australia
7886,School of Computer Science and Engineering,University of New South Wales,,,,Sydney,NSW,2052,Australia
1766,School of Computer Science and Engineering,University of NSW,Australia and NICTA,,,,,,Australia
8139,School of Computer Science and Engineering University of New South Wales,,,,,,,,Australia
8516,School of Computer Science and Information Technology,RMIT University,,,,,,,Australia
9353,School of Computer Science and Information Technology,RMIT University,,,,Melbourne,,,Australia
1268,School of Computing,National University of Singapore,,,,,,,
6694,School of Computing,National University of Singapore,,Lower Kent Ridge Road,,,,,Singapore
1474,School of Computing,National University of Singapore,,,,,,,Singapore
8095,School of Computing,National University of Singapore,Singapore and School of Electronics Engineering and Computer Science,Peking University,,,,,P.R. China
5621,School of Computing,National University of Singapore,,,,Singapore,,,Singapore
6468,School of Computing Science,Simon Fraser University,,,,,,,
6738,School of Computing Science,Simon Fraser University,,,,,B.C.,,Canada
6690,School of Computing Science,Simon Fraser University,,,,Burnaby,BC,,Canada
6979,School of Computing Science,Simon Fraser University,,,,,,,Canada
6776,School of Electrical Engineering and Computer Science,Seoul National University,,,,,,,
8832,School of Electrical Engineering and Computer Science,Seoul National University,,,,Seoul,,151-742,South Korea
843,School of Informatics,Indiana University,,,,Bloomington,,,
7936,School of Information and Computer Science,University of California,,,,Irvine,CA,92697-3425,USA
1727,School of Information and Computer Sciences University of California,,,,,Irvine,CA,,
514,School of Information Systems,Singapore Management University,,,,,,,Singapore
6676,School of Information Technology,IIT Bombay,,,,,,,India
8508,School of Information Technology and Electrical Engineering,The University of Queensland,,,,,,,Australia
9305,School of Information Technology and Electrical Engineering,The University of Queensland,,,,Brisbane,,,Australia
9355,School of Information Technology and Electrical Engineering,The University of Queensland,,,,Brisbane,,4072,Australia
8837,School of Information Technology and Electrical Engineering,The University of Queensland,,,,Brisbane,QLD,4072,Australia
8834,School of Information Technology and Engineering,University of Ottawa,,,,Ottawa,,,Canada
733,School of Mechanical Engineering,Purdue University,,,,West Lafayette,Indiana,,
2255,Seoul National Univ.,,,,,,,,
1782,Seoul National University,,,,,,,,
1987,Seoul National University,School of Electrical Eng. and Computer Science,,,,Seoul,,,Korea
59,Seoul National University,,,,,Seoul,,,Korea
5105,Seoul National University,,,,,Seoul,,,South Korea
9206,SERC/CSA,Indian Institute of Science,,,,Bangalore,,,India
9333,Server Manageability,Oracle,,,,Redwood Shores,,94065,USA
9726,Shanghai Jiao Tong University,,,,,,,,China
6451,Shanghai Jiao Tong University,,,,,Shanghai,,,China
5894,Shanghai JiaoTong University,,,,,Shang Hai,,,China
2711,Shanghai JiaoTong University,,,,,Shanghai,,,China
3745,Shibaura Institute of Technology,,,,,,,,
7662,Shibaura Institute of Technology,Saitama-City,Saitama,,,,,,Japan
4609,Siebel Systems,,,,,San Mateo,CA,,
3864,Siebel Systems,,,,,San Mateo,CA,,USA
2611,Siemens Corporate Research,,,,,,,,
341,Siemens Corporate Research,,,,,Princeton,NJ,,
6888,Siemens Technology-to-Business Center,,,Suite 375,1995 University Ave,Berkeley,California,,
1156,Simon Fraser U.,,,,,,,,
2440,Simon Fraser University,,,,,,,,
919,Simon Fraser University,,,,,Burnaby,BC,,Canada
9374,Simon Fraser University,,,,,Burnaby,,,Canada
72,Simon Fraser University,,,,,,,,Canada
1807,Simon Fraser University,School of Computing Science,,,,Burnaby,BC,,Canada
6402,Simon Fraser University,,,,,Vancouver,,,Canada
3219,Singapore Management University,,,,,,,,
2275,Singapore Management University,,,,,,,,Singapore
5556,Singapore Management University,,,,,Singapore,,,Singapore
9626,SLAC,,,,,,,,
7324,SoC,National University of Singapore,,,,,,,
1601,Software AG,,,,,Darmstadt,,,Germany
7703,Software AG,,,,,,,,
741,Software Laboratories,Samsung Electronics Co.,Ltd.,Suwon-City,Gyeonggi-Do,,,,Korea
7440,Southwest Texas State University,,,,,San Marcos,Texas,,
1561,Spatial Technologies,Oracle Corporation,,New Hampshire,,Nashua,,,
7579,Stanford Univ.,,,,,Stanford,CA,,
113,Stanford University,,,,,,,,
1859,Stanford University,Computer Science Department,,,,Stanford,CA,,
1508,Stanford University,,,,,Palo Alto,,,
1591,Stanford University,,,,,Palo Alto,CA,,
8645,Stanford University,,,,,Palo Alto,,,USA
1872,Stanford University,,,,,Stanford,,,
144,Stanford University,,,,,Stanford,CA,,
7673,Stanford University,,,,,Stanford,CA,94305,USA
5772,Stanford University,,,,,Stanford,CA,,USA
1182,Stanford University,,,,,Stanford,California,,
6233,Stanford University,,,,,Stanford,California,,USA
6423,Stanford University,,,,,Stanford,,,USA
8082,Stanford University,,,,,,,,USA
844,Stanford University InfoLab,,,,,,,,
2054,Stata Labs,Inc.,,,,,,,
2053,Stata Labs,Inc.,UC Santa Cruz,,,,,,
2061,State University of New York,at Buffalo,,,,,,,
1686,State University of New York at Buffalo,,,,,,,,
2382,State University of New York at Stony Brook,,,,,,,,
8383,Statistics Group,Rovira i Virgili University of Tarragona,,,,,Catalonia,,
6873,Steven Institute of Technology,,,,,,,,
1082,Stevens Institute of Technology,,,,,,,,
7711,Stevens Institute of Technology,Castle Point on Hudson,,,,Hoboken,NJ,7030,USA
1129,Stony Brook University,,,,,,,,
183,Stony Brook University,,,,,Stony Brook,NY,,
9180,Sun Yat-Sen University,,,,,,,,
3089,SUNY at Binghamton,,,,,,,,
458,SUNY at Binghamton,,,,,Binghamton,NY,,
4822,SUNY Buffalo,,,,,,,,
5488,SUNY Buffalo,,,,,Buffalo,NY,,
6161,SUNY Buffalo,,,,,Buffalo,NY,,USA
3451,Surromed,,,,,Palo Alto,CA,,USA
3662,Surromed Inc,,,,,,,,
7585,Swiss Federal Institute of Technology,,,,,Zürich,,,Switzerland
1146,Swiss Federal Institute of Technology,ETH Zentrum,,,,Zurich,,,Switzerland
1148,Swiss Federal Institute of Technology,ETH Zentrum,,,,Zurich,,,Switzerland
7632,Swiss Federal Institute of Technology (ETH),,,,,Zürich,,,Switzerland
7865,Swiss Federal Institute of Technology (ETH) Zurich,Institute of Information Systems,ETH Zentrum,8092 Zurich,Switzerland,,,,
7908,Swiss Federal Institute of Technology (ETHZ),,,,,Zürich,,,Switzerland
6302,Sybase,Inc.,,,,Paris,,,France
3891,Sybase France,,,,,,,,
4372,Syracuse University,,,,,Syracuse,NY,,
5664,Syracuse University,,,,,Syracuse,NY,,USA
1336,T. J. Watson Resch. Ctr.,,,,,,,,
50,T. J. Watson Research Center,IBM,,,,,,,
3846,Tavant,,,,,,,,
7630,Tavant Technologies,,,,,,,,
1092,TCS Lab for Internet Research,Department of Computer Science and Engineering,Indian Institute of Technology Bombay,,,Mumbai,,,India
1330,TCS Lab for Internet Research,Dept of Comp Science and Engg,Indian Institute of Technology Bombay,,,Mumbai,,,India
3143,Technical University of Crete,,,,,,,,
9349,Technical University of Crete,,,,,Chania,,,Greece
4301,Technical University of Crete,,,,,,Crete,,Greece
6231,Technical University of Dortmund,,,,,Dortmund,,,Germany
5599,Technical University of Munich,,,,,Munich,,,Germany
3751,Technical University of Wien,,,,,,,,
4835,Technion,,,,,,,,
718,Technion,,,,,Haifa,,,Israel
425,Technion - IIT,,,,,Haifa,,,Israel
8131,Technion - Israel Institute of Technology,,,,,,,,Israel
8323,Technion---Israel Institute of Technology,,,,,Haifa,,,Israel
2685,Technion---Israel Institute of Technology,Technion City,,,,Haifa,,,Israel
679,Technische Universität Dresden,,,,,Dresden,,,Germany
8649,Technische Universität Dresden,,,,,Dresden,,1062,Germany
6280,Technische Universität München,,,,,Garching,,,Germany
467,Technische Universität München,,,,,,,,Germany
7823,Technische Universität München,Institut für Informatik,,,,München,,81667,Germany
397,Technische Universität München,,,,,Munich,,,Germany
1762,Technische Universität Wien,,,,,Vienna,,,Austria
7617,Technische Universität Wien,,,,,Wien,,,Austria
394,Tel Aviv University,,,,,,,,
2688,Tel Aviv University,,,,,,,,Israel
3119,Tel Aviv University,,,,,Tel Aviv,,,Israel
7397,Tel-Aviv University,,,,,,,,
8830,Tel-Aviv University,,,,,Tel-Aviv,,,Israel
3526,Telcordia,,,,,Morristown,NJ,,USA
3632,Telcordia Technologies,,,,,,,,
6628,Telcordia Technologies,,,,,Morristown,NJ,,
3071,Telecom ParisTech,,,,,,,,
3265,Teradata,,,,,,,,
9562,Teradata,,,,,El Segundo,CA,,
6299,Teradata,,,,,Elsegundo,CA,,USA
4231,Teradata,NCR,,,,San Diego,CA,,
9561,Teradata,,,,,San Diego,CA,,
5823,Teradata,,,,,San Diego,CA,,USA
6296,Teradata Corporation,,,,,Elsegundo,CA,,USA
8889,Teradata Division,NCR Corporation,,,,Los Angeles,,90245,USA
5068,Texas State University,,,,,,,,
6123,Texas State University-San Marcos,,,,,San Marcos,TX,,USA
1239,The Boeing Company,,,,,Seattle,WA,,
9495,The Chinese University of Hong Kong,,,William M.W. Mong Engineering Building,Room 511B,Shatin,Hong Kong,,
9493,The Chinese University of Hong Kong,,,William M.W. Mong Engineering Building,Room 609,Shatin,Hong Kong,,
70,The Chinese University of Hong Kong,,,,,,,,
2461,The Chinese University of Hong Kong,,,,,,,,China
2363,The Chinese University of Hong Kong,,,,,Hong Kong,,,
48,The Chinese University of Hong Kong,,,,,Hong Kong,,,China
9231,The Chinese University of Hong Kong,,,,,Hong Kong,New Territories,,
195,The Chinese University of Hong Kong,,,Shatin,,Hong Kong,,,
9376,The Chinese University of Hong Kong,,,Shatin,,Hong Kong,,,China
8435,The College of William and Mary,,,,,,,,USA
64,The College of William and Mary,,,,,Williamsburg,VA,,
599,The Hebrew University,,,,,,,,
721,The Hebrew University,,,,,Jerusalem,,,Israel
2203,The Hebrew University of Jerusalem,Edmond J. Safra Campus,,,,Jerusalem,,,Israel
5729,The Hebrew University of Jerusalem,,,,,Jerusalem,,,Israel
2228,The Hong Kong Polytechnic University,,,,,,,,
5709,The Hong Kong Polytechnic University,,,,,Hong Kong,,,
6,The Hong Kong Polytechnic University,Hung Hom,,Kowloon,,Hong Kong,,,
9175,The Hong Kong University of Science and Technology,,,,,,,,
9232,The Hong Kong University of Science and Technology,,,,,Hong Kong,Clear Water Bay,,
7623,The Hong Kong University of Science and Technology,,,,,Hong Kong,Clearwater Bay,,
9276,The Hong Kong University of Science and Technology,,,,,Hong Kong,,,
51,The Hong Kong University of Science and Technology,,,,,Hong Kong,,,China
5566,The Hong Kong University of Science and Technology,,,,,Hong Kong,,,
8774,The Hong Kong University of Science and Technology,,,Kowloon,,Hong Kong,,,
7153,The Johns Hopkins University,,,,,,,,
299,The MITRE Corporation,,,,,,,,
8314,The MITRE Corporation,,,,,McLean,VA,,
6174,The MITRE Corporation,,,,,McLean,VA,,USA
1452,The MITRE Corporation,,,,,McLean,Virginia,,
1450,The MITRE Corporation,Computer Science Department,Center for Automation Research and Institute for Advanced Computer Studies,University of Maryland at College Park,,McLean,Virginia,,
1936,The MITRE Corporation,Computer Science Department,Center for Automation Research and Institute for Advanced Computer Studies,University of Maryland at College Park,,McLean,Virginia,,
8421,The MITRE Corporation,,,,,,,,USA
746,The Ohio State University,,,,,,,,
173,The Ohio State University,,,,,Columbus,OH,,
5661,The Ohio State University,,,,,Columbus,OH,,USA
6178,The Ohio State University,,,,,Columbus,,,USA
8350,The Penn State University,,,,,,,,USA
6070,The Pennsylvania State University,,,,,University Park,PA,,USA
9387,The Selim and Rachel Benin School of Engineering and Computer Science,The Hebrew University of Jerusalem,,,,Jerusalem,,91094,Israel
1932,The Selim and Rachel Benin School of Engineering and Computer Science,The Hebrew University,,,,Jerusalem,,,
3446,The TimesTen Team,,,,,Mountain View,CA,,USA
7628,The University of British Columbia,,,,,,,,
7967,The University of British Columbia,,,,,Vancouver,BC,,Canada
2226,The University of Hong Kong,,,,,,,,
7,The University of Hong Kong,,,,,Hong Kong,,,
5710,The University of Hong Kong,,,,,Hong Kong,,,
8313,The University of Maryland at College Park,,,,,College Park,MD,,
8312,The University of Maryland at College Park/The MITRE Corporation,,,,,McLean,VA,,
5715,The University of Melbourne,,,,,Melbourne,,,Australia
8788,The University of Melbourne,Victoria,,,,,,,Australia
8309,The University of Michigan---Dearborn,,,,,Dearborn,MI,,
66,The University of New South Wales,,,,,,,,
3310,The University of New South Wales,,,,,,,,Australia
2840,The University of New South Wales,,,,,Sydney,,,Australia
7439,The University of New South Wales,,,,,Sydney,NSW,,Australia
2676,The University of Queensland,,,,,,,,
8465,The University of Queensland,,,,,,,,Australia
4573,The University of Queensland,,,,,Brisbane,,,Australia
9191,The University of Queensland,National ICT Australia (NICTA),,,,Brisbane,,,
7591,The University of Texas at Arlington,,,,,,,,
4041,The University of Texas at Arlington,,,,,Arlington,TX,,
6649,The University of Texas at Arlington,CSE,,416 Yates Street,P.O.Box 19015,Arlington,TX,,
4279,The University of Texas at Dallas,Richardson,,,,,TX,,
3291,The University of Tokyo,,,,,,,,
9258,Thomas J. Watson Center,IBM Research,,,,Hawthorne,,10532,USA
2302,Thomas J. Watson Research Center,IBM Research,,,,Hawthorne,NY,,
7165,TimesTen Performance Software,,,,,Mountain View,CA,,
1138,TransAction Software GmbH Gustav-Heinemann-Ring,,,,,München,,,Germany
3536,TransAction Software GmbH Munich,,,,,,,,
2603,Tsinghua University,,,,,Beijing,,,China
2895,Tsinghua University,,,,,Beijing,,,P.R. China
8534,Tsinghua University,,,,,Beijing,,,PR China
5034,TU Dresden,,,,,,,,
4067,TU Eindhoven,,,,,Eindhoven,,,The Netherlands
2939,TU Ilmenau,,,,,,,,Germany
7229,TU München,,,,,,,,
2529,TU München,,,,,Garching,,,Germany
9017,TU München,,,,,Munich,,,Germany
7230,TU München,XQRL,Inc.,,,,,,
3469,TUM,,,,,,,,
1875,U of Pennsylvania,,,,,,,,
9603,U. C. Berkeley,,,,,,,,
4550,U. C. Berkeley,,,,,Berkeley,CA,,
3067,U. C. Santa Cruz,,,,,,,,
4045,U. di Roma La Sapienza,,,,,,,,
1155,U. of British Columbia,,,,,,,,
1157,U. of Illinois,,,,,,,,
4043,U. of Michigan,,,,,,,,
4866,U. of Texas at Arlington,,,,,,,,
5132,U. of Torino,,,,,Torino,,,Italy
4198,U.C. Berkeley,,,,,,,,
663,U.C. Berkeley,EECS Dept.,,,,Berkeley,CA,,
4199,U.C. Berkeley,Intel Research,,,,Berkeley,,,
752,U.C. Berkeley Department of Electrical Engineering and Computer Science,,,,,,,,
9450,U.C. San Diego,La Jolla,,,,,CA,,
6609,U.Paris XI,LRI,,,,Orsay,,91405,France
1816,UC,,,,,Berkeley,,,
1360,UC,,,,,San Diego,,,
547,UC Berkeley,,,,,,,,
7173,UC Berkeley,,,,,Berkeley,CA,,
5769,UC Berkeley,,,,,Berkeley,CA,,USA
8667,UC Berkeley,,,,,Berkeley,,,USA
7458,UC Berkeley,CS Division,,,,,,,
1867,UC Berkeley,EECS Dept. Berkeley,,,,,CA,,
4832,UC Davis,,,,,,,,
554,UC Riverside,,,,,,,,
2835,UC San Diego,,,,,,,,
2901,UC San Diego,,,,,,CA,,
5093,UC San Diego,,,,,La Jolla,CA,,
528,UC Santa Cruz,,,,,,,,
9658,UC Santa Cruz,,,,,Santa Cruz,CA,,
5766,UC Santa Cruz,,,,,Santa Cruz,,,USA
234,UCLA,,,,,,,,
5394,UCLA,,,,,Los Angeles,CA,,
6333,UCLA,,,,,Los Angeles,CA,,USA
4335,UCLA Anderson School,,,,,Los Angeles,CA,,
4524,UCLA Computer Science,,,,,,,,
1090,UCLA Computer Science Department,,,,,Los Angeles,CA,,
8027,UCLA Computer Science Department,,,,,Los Angeles,CA,,
2223,UCSD,,,,,,,,
5635,UCSD,,,,,San Diego,CA,,USA
625,UIUC,,,,,,,,
5521,UIUC,,,,,Urbana,IL,,
3567,UM Ann Arbor,,,,,,,,
4871,UMass Amherst,,,,,,,,
156,UMass Boston,,,,,Boston,MA,,
6750,UMass/Boston,Dept. of CS,UMass/Boston,,,Boston,MA,,
4843,UNC Chapel Hill,,,,,,,,
6745,Univ British Columbia,UBC,,2366 Main Mall,,Vancouver,BC,,
1293,Univ. California,,,,,Berkeley,,,
7587,Univ. degli Studi di Torino,,,,,Torino,,,Italy
7614,Univ. di Milano,,,,,Milan,,,Italy
7615,Univ. di Torino,,,,,Torino,,,Italy
122,Univ. of British Columbia,,,,,,,,
7582,Univ. of British Columbia,,,,,Vancouver,B.C.,,Canada
7606,Univ. of Buffalo,,,,,Buffalo,NY,,
8983,Univ. of California,Berkeley EECS,,,,,,,
7603,Univ. of California,IBM Almaden Research Center,,Berkeley,,San Jose,CA,,
2467,Univ. of California,,,,,Riverside,,,
7565,Univ. of California,,,,La Jolla,San Diego,CA,,
4848,Univ. of California Riverside,,,,,Riverside,CA,,
4810,Univ. of California Santa Cruz,,,,,,,,
4792,Univ. of Illinois,,,,,Urbana-Champaign,,,
460,Univ. of Illinois at Chicago,,,,,Chicago,IL,,
461,Univ. of Louisiana at Lafayette,,,,,Lafayette,LA,,
3343,Univ. of Maryland,,,,,,,,
7600,Univ. of Maryland,College Park,,,,,,,
7577,Univ. of Massachusetts,,,,,Amherst,,,
688,Univ. of Melbourne,,,,,,,,
300,Univ. of Michigan,,,,,,,,
7578,Univ. of Munich,,,,,Munich,,,Germany
7575,Univ. of Passau,,,,,Passau,,,Germany
6512,Univ. of Pennsylvania,,,,,,,,
4175,Univ. of Rome,La Sapienza,,,,,,,
2468,Univ. of Texas,,,,,Arlington,,,
3205,Univ. of Texas at Arlington,,,,,,,,
7611,Univ. of Tokyo,,,,,Tokyo,,,Japan
689,Univ. of Toronto,,,,,,,,
1022,Univ. of Washington,,,,,Seattle,,,
4406,Univ. of Washington,,,,,Seattle,WA,,
7732,Univ. of Washington,,,,,,,,
7607,Univ. of Waterloo,,,,,Waterloo,Ont.,,Canada
1019,Univ. of Wisconsin,,,,,Madison,,,
7090,Univ. of Wisconsin-Madison,,,,,,,,
7180,Univ. of Wisconsin-Madison,,,,,Madison,WI,,
2256,Univ. Paris Dauphine,,,,,,,,
476,Univ. Paris XI,,,,,,,,
2862,Univ. Paris-Sud,,,,,,,,France
4486,Univ. Politecnica de Madrid,,,,,,,,
2259,Univ. Santa Clara,,,,,,,,
2863,Univ. Versailles-Saint-Quentin,,,,,,,,France
2899,Univ. Wisconsin,,,,,Madison,,,
9074,Univ. Wisconsin Madison,,,,,,,,
5158,Univerisity of California,,,,,Santa Barbara,CA,,
5066,Univeristy of New South Wales,,,,,,,,Australia
1761,Universidad de Buenos Aires,Departamento de Computación,,,,,,,
9406,Universidad de Chile,,,,,,,,Chile
8261,Universidad de Chile,C. P,,,,,,,Chile
9288,Universidad Politécnica de Madrid,,,,,,,,Spain
7906,Universidad Politécnica de Madrid (UPM),,,,,Madrid,,,Spain
8396,Universidade Federal do Rio de Janeiro,Rio de Janeiro-RJ,,,,,,,Brazil
8398,Universidade Federal do Rio Grande do Sul,,,,,,,,Brazil
5634,Universita di Pisa,,,,,Pisa,,,Italy
622,Universita di Roma La Sapienza,,,,,Roma,,,Italy
7597,Universita di Roma Tre,,,,,,,,
7226,Università della Basilicata,c.da Macchia Romana,85100 Potenza,,,,,,Italy
2128,Università della Basilicata,,,,,Potenza,,,Italy
9708,Università della Basilicata -- Potenza,,,,,,,,Italy
4696,Università della Calabria,,,,,Rende,,,Italy
2231,Università di Milano,Crema,,,,,,,Italy
7813,Università di Roma “La Sapienza”,Dipartimento di Informatica e Sistemistica,Via Salaria 113,,,Roma,,198,Italy
184,Università di Roma La Sapienza,,,,,,,,
5535,Università di Torino,,,,,Torino,,,Italy
4705,Università La Sapienza,,,,,Roma,,,Italy
8961,Università Roma Tre,,,,,,,,
9709,Università Roma Tre,,,,,Roma,,,Italy
2127,Università Roma Tre,,,,,Roma,,,Italy
8879,Università Roma Tre,,,,,Rome,,,Italy
7225,Università Roma Tre,Via della Vasca Navale 79,,,,Roma,,149,Italy
6206,Universitàà della Basilicata,,,,,Potenza,,,Italy
8489,Universität des Saarlandes,,,,,Saarbrücken,,,Germany
3035,Universität Karlsruhe (TH),,,,,,,,Germany
7875,Universität Leipzig,Institut für Informatik,,,,Leipzig,,4109,Germany
7869,Universität Münster,Institut für Wirtschaftsinformatik,vossen}@helios.uni-muenster.de,Leonardo-Campus 3,,Münster,,48149,Germany
8583,Universität Magdeburg,,,,,,,,Germany
4576,Universität Mannheim,,,,,Mannheim,,,Germany
7704,Universität Mannheim,[helmer|moerkotte]@informatik.uni-mannheim.de,,,,,,,
1257,Universität Passau,Fakultät für Mathematik und Informatik,,,,Passau,,,Germany
7754,Universität Passau,Lehrstuhl für Informatik,,,,Passau,,94030,Germany
7820,Universität Passau,Lehrstuhl für Informatik,,,,Passau,,94030,Germany
1190,Universität Passau,,,,,Passau,,,Germany
6378,Universität Tübingen,Tübingen,,,,,,,Germany
8254,Université de Mons-Hainaut,Mons,,,,,,,Belgium
2491,Université de Nantes,,,,,,,,
7870,Université de Paris-Sud,LRI,CNRS-UMR 8623,Bât. 490,,Orsay,,91405,France
6535,Université Paris 9 (Dauphine),Pl. du Mal de Lattre,,,,,,75016,Paris
8255,Université Paris Dauphine,,,,,Paris,,,France
9785,Université Paris-Sud,,,,,,,,France
2157,Universitat Politècnica de Catalunya,,,,,Barcelona,Caalonia,,Spain
2156,Universitat Politècnica de Catalunya,,,,,Barcelona,Catalonia,,Spain
8607,University at Albany,State University of New York,,,,,NY,,Albany
4680,University at Albany,SUNY,,,,,NY,,Albany
7972,University at Buffalo,,,,,Buffalo,New York,,
3168,University at Buffalo,,,,,Buffalo,NY,,
8593,University at Buffalo,State University of New York,,,,Buffalo,NY,,
3935,University Freiburg,,,,,,,,
3928,University Marburg,,,,,,,,
5531,University of Aberdeen,,,,,,,,United Kingdom
9148,University of Alberta,,,,,,,,
1434,University of Alberta,Department of Computing Science,,,,Edmonton,Alberta,,Canada
273,University of Alberta,,,,,Edmonton,Alberta,,Canada
7596,University of Antwerp,,,,,,,,
8451,University of Antwerp,,,,,Antwerp,,,Belgium
7646,University of Antwerp,Wilrijk,,,,,,,Belgium
7038,University of Arizona,,,,,,,,
8301,University of Arizona,,,,,,AZ,,
1839,University of Arizona,Department of Computer Science,,,,Tucson,AZ,,
60,University of Arizona,,,,,Tucson,AZ,,
5839,University of Arizona,,,,,Tucson,AZ,,USA
3659,University of Arizona at Tucson,,,,,,,,
5645,University of Athens,,,,,Athens,,,Greece
9384,University of Athens,,,,,Athens,,15771,Greece
8611,University of Athens,,,,,Athens,,15784,Greece
4050,University of Athens,,,,,,,,Hellas
3546,University of Augsburg,,,,,,,,
3926,University of Basilicata,,,,,,,,
3641,University of Bologna,,,,,,,,
1080,University of British Columbia,,,,,,,,
7712,University of British Columbia,,,201-2366 Main Mall,,Vancouver,BC,V6T 1Z4,Canada
407,University of British Columbia,,,,,,,,Canada
7240,University of British Columbia,,,,,Vancouver,B. C.,,Canada
8449,University of British Columbia,,,,,Vancouver,B.C.,,Canada
7695,University of British Columbia,,,,,Vancouver,BC,,Canada
3993,University of British Columbia,,,,,Vancouver,CA,,
4136,University of British Columbia,,,,,Vancouver,,,Canda
7760,University of British Columbia,,,,,,,,
3564,University of Buenos Aires,,,,,,,,
29,University of Calgary,,,,,,,,
4422,University of Calgary,,,,,Calgary,AB,,Canada
7987,University of California,,,,,San Diego,,,USA
1518,University of California,,,,,,,,
1385,University of California,,,,,Berkeley,,,
6486,University of California,Berkeley CA,,,,,,,
7594,University of California,Berkeley,,,,Berkeley,CA,,
6278,University of California,Berkeley,,,,Berkeley,CA,,USA
7973,University of California,Berkeley,,,,Berkeley,California,,
3016,University of California,,,,,Berkeley,CA,,
7689,University of California,,,,,Berkeley,California,,
7765,University of California,,Computer Science Division,Berkeley,,Berkeley,CA,94720-1776,
2360,University of California,,,,,Davis,,,
7866,University of California,,Department of Computer Science,One Shields Avenue,,Davis,CA,95616,USA
117,University of California,,,,,Irvine,,,
2280,University of California,,,,,Irvine,CA,,
1905,University of California,,,,,Irvine,CA,,
5640,University of California,,,,,Irvine,CA,,USA
6220,University of California,,,,,Irvine,California,,USA
8814,University of California,,,,,Irvine,,,USA
8554,University of California,,,,,Los Angeles,CA,,
7970,University of California,,,,,Los Angeles,California,,
196,University of California,,,,,Riverside,,,
56,University of California,,,,,Riverside,CA,,
5366,University of California,,,,,Riverside,CA,,
8728,University of California,,,,,Riverside,,,USA
1124,University of California,,,,,San Diego,,,
3531,University of California,,,,,San Diego La Jolla,CA,,
9779,University of California,,,,,San Diego,CA,,
135,University of California,,,La Jolla,,San Diego,CA,,
1982,University of California,,,,,Santa Barbara,,,
45,University of California,,,,,Santa Barbara,CA,,
8411,University of California,,,,,Santa Barbara,CA,,
5651,University of California,,,,,Santa Barbara,CA,,USA
9310,University of California,,,,,,,,USA
1956,University of California,,,,,Santa Cruz,,,
8482,University of California,,,,,Santa Cruz,CA,,
8273,University of California,,,,,Santa Cruz,CA,,
5977,University of California,,,,,Santa Cruz,CA,,USA
7998,University of California,,,,,Santa Cruz,California,,
8359,University of California,,,,,,,,USA
1061,University of California - Riverside,Computer Science & Engineering Department,,,,Riverside,CA,,
1005,University of California at Berkeley,,,,,,,,
5224,University of California at Berkeley,,,,,Berkeley,CA,,
6064,University of California at Berkeley,,,,,Berkeley,CA,,USA
3695,University of California at Davis,,,,,,,,
6389,University of California at Davis,,,,,Davis,CA,,USA
7621,University of California at Irvine,,,,,,,,
3937,University of California at Los Angeles,,,,,,,,
3856,University of California at Riverside,,,,,,,,
8117,University of California at San Diego,,,,,La Jolla,CA,,
3202,University of California at Santa Barbara,,,,,,,,
1492,University of California at Santa Barbara,Computer Science Department,,,,Santa Barbara,,,
2732,University of California at Santa Barbara,,,,,Santa Barbara,CA,,
7663,University of California at Santa Cruz,,,,,Santa Cruz,CA,,
3486,University of California Irvine,,,,,,,,
6436,University of California Irvine,,,,,Irvine,CA,,USA
3323,University of California Los Angeles,,,,,Los Angeles,,,
2305,University of California Los Angeles,,,,,Los Angeles,CA,,
633,University of California Riverside,,,,,,,,
1365,University of California San Diego,,,,,,,,
6435,University of California San Diego,,,,,La Jolla,CA,,USA
5542,University of California San Diego,,,,,San Diego,CA,,
4490,University of California Santa Barbara,,,,,Santa Barbara,CA,,
5779,University of California Santa Barbara,,,,,Santa Barbara,CA,,USA
4048,University of California Santa Cruz,,,,,,,,
6144,University of California Santa Cruz,,,,,Santa Cruz,CA,,USA
5311,University of California: Irvine,,,,,Irvine,CA,,
5501,University of California: Santa Barbara,,,,,Santa Barbara,CA,,
7361,University of Cambridge,,,,,Cambridge,,,UK
8134,University of Camerino,,,,,,,,Italy
1130,University of Central Florida,,,,,,,,
4911,University of Central Florida,,,,,Orlando,FL,,
8308,University of Central Oklahoma,,,,,Edmond,OK,,
3445,University of Crete,,,,,,,,
8392,University of Dortmund,,,,,Dortmund,,,Germany
563,University of Edinburgh,,,,,,,,
7995,University of Edinburgh,,,,,Edinburgh,,,Scotland
5233,University of Edinburgh,Scotland UK,,,,Edinburgh,,,
429,University of Edinburgh,,,,,Edinburgh,,,UK
5993,University of Edinburgh,United Kngdm,,,,Edinburgh,,,
8705,University of Edinburgh,,,,,,,,Scotland
8208,University of Edinburgh,,,,,,Scotland,,UK
5232,University of Edinburgh & Bell Laboratories,,,,,Edinburgh,Scotland,,UK
5172,University of Edinburgh & Bell Laboratories,,,,,Edinburgh,,,United Kingdom
438,University of Florida,,,,,,,,
4527,University of Florida,,,,,Gainesville,,,
222,University of Florida,,,,,Gainesville,FL,,
5723,University of Florida,,,,,Gainesville,FL,,USA
8779,University of Florida,Gainesville,,,,Gainesville,FL,,
3524,University of Florida,,,,,Gainesville,,,USA
3661,University of Freiburg,,,,,,,,
3266,University of Freiburg,Georges-Köhler-Allee,,,,Freiburg,,,Germany
491,University of Genoa,Genoa,,,,,,,Italy
4513,University of Genova,,,,,,,,Italy
3650,University of Glasgow,,,,,,,,
3362,University of Halle,,,,,,,,
7242,University of Halle,,,,,,,,Germany
472,University of Hannover,,,,,,,,
5010,University of Heidelberg,,,,,,,,Germany
6390,University of Heidelberg,,,,,Heidelberg,,,Germany
8072,University of Heidelberg,Institut für Informatik,,,,,,,Germany
4865,University of Helsinki,,,,,,,,
8286,University of Helsinki,,,,,,,,Finland
2419,University of Hong Kong,,,,,,,,
120,University of Hong Kong,,,,,Hong Kong,,,
5554,University of Hong Kong,,,,,Hong Kong,,,
7083,University of Hong Kong,,,Pokfulam Road,,Hong Kong,,,
5382,University of Houston,,,,,Houston,TX,,
6403,University of Houston,,,,,Houston,TX,,USA
5703,University of Ilinois at Urbana Champaign,,,,,Urbana,IL,,USA
296,University of Illinois,,,,,,,,
7860,University of Illinois,,,1304 W. Springfield Ave.,,Urbana,IL,61801,USA
7278,University of Illinois,,,,,Chicago,,,
4013,University of Illinois,Urbana Champaign,,,,,,,
1078,University of Illinois,Urbana-Champaign,,,,,,,
4075,University of Illinois,Urbana-Champaign,,,,,IL,,
5571,University of Illinois,Urbana-Champaign,,,,Urbana,IL,,USA
8418,University of Illinois,,,,,,,,USA
3078,University of Illinois at Chicago,,,,,,,,
787,University of Illinois at Chicago,,,,,Chicago,IL,,
5659,University of Illinois at Chicago,,,,,Chicago,IL,,USA
8663,University of Illinois at Urbana Champaign,,,,,Champaign,,,USA
5704,University of Illinois at Urbana Champaign,,,,,Urbana,IL,,USA
26,University of Illinois at Urbana-Champaign,,,,,,,,
743,University of Illinois at Urbana-Champaign,,,,,,IL,,
212,University of Illinois at Urbana-Champaign,,,,,Urbana,IL,,
5657,University of Illinois at Urbana-Champaign,,,,,Urbana,IL,,USA
6039,University of Illinois at Urbana-Champaign,,,,,Urbana,,,USA
3485,University of Illinois Urbana,,,,,,,,
8133,University of Insubria,,,,,,,,Italy
3126,University of Ioannina,,,,,,,,Greece
5632,University of Ioannina,Ioannina,,,,,,,Greece
4889,University of Kaiserslautern,,,,,,,,
811,University of Kaiserslautern,Kaiserslautern,,,,,,,Germany
8754,University of Kaiserslautern,,,,,Kaiserslautern,,67653,Germany
7023,University of Konstanz,,,,,Konstanz,,78457,Germany
1453,University of Konstanz,Department of Computer and Information Science,,,,Konstanz,,,Germany
7244,University of Konstanz,,,,,,,,Germany
1180,University of Konstanz,,,,,Konstanz,,,Germany
1113,University of Leipzig,,,,,,,,
1805,University of Leipzig,,,,,,,,Germany
4686,University of Leipzig,,,,,Leipzig,,,Germany
2503,University of London,,,,,London,,,United Kingdom
8405,University of London,,,,,,,,U.K.
8058,University of Louisiana at Lafayette,,,,,,,,USA
7898,University of Münster,,,,,Münster,,,Germany
5528,University of Manchester,,,,,Manchester,,,United Kingdom
2613,University of Mannheim,,,,,,,,Germany
770,University of Mannheim,,,,,Mannheim,,,Germany
3775,University of Marburg,,,,,,,,
9235,University of Marburg,,,,,,,,Germany
2278,University of Marburg,,,,,Marburg,,,Germany
3452,University of Maryland,,,,,,,,
5266,University of Maryland,Baltimore County,,,,Baltimore,MD,,
2838,University of Maryland,,,,,College Park,,,
7364,University of Maryland,,College Park,,,College Park,Maryland,,
7904,University of Maryland,,,,,College Park,MD,,
1096,University of Maryland,,,,,College Park,MD,,
9791,University of Maryland,,,,,College Park,MD,,
7727,University of Maryland,,,vladimir,,College Park,MD,20742,USA
5562,University of Maryland,,,,,College Park,MD,,USA
8682,University of Maryland,,,,,College Park,,,USA
426,University of Maryland,,,,,,MD,,
8576,University of Maryland,,,,,,,,USA
3136,University of Maryland at College Park,,,,,,,,
9101,University of Maryland Baltimore County,,,,,,,,
3032,University of Massachusetts,,,,,,,,
3145,University of Massachusetts,,,,,Amherst,,,
8854,University of Massachusetts,,,,,Amherst,MA,,
2932,University of Massachusetts,,,,,Amherst,MA,,
3090,University of Massachusetts Amherst,,,,,,,,
5587,University of Massachusetts Amherst,,,,,Amherst,MA,,USA
4252,University of Massachusetts Boston,,,,,,,,
8253,University of Melbourne,,,,,,,,Australia
9201,University of Melbourne,Victoria,,,,,,,Australia
9141,University of Melbourne Melbourne,,,,,,,,Australia
2501,University of Michigan,,,,,,,,
1081,University of Michigan,,,,,Ann Arbor,,,
101,University of Michigan,,,,,Ann Arbor,MI,,
5692,University of Michigan,,,,,Ann Arbor,MI,,USA
7692,University of Michigan,Mich.,,,,Ann Arbor,,,USA
2271,University of Michigan,,,,,Ann Arbor,Michigan,,
7758,University of Michigan,Ann Arbor,,,,,,,
199,University of Michigan,,,,,,MI,,
8238,University of Michigan,,,,,,,,USA
3717,University of Michigan at Ann Arbor,,,,,,,,
5537,University of Michigan: Ann Arbor,,,,,Ann Arbor,MI,,
3582,University of Milano,,,,,,,,Italy
3065,University of Minnesota,,,,,Minneapolis,MN,,
6003,University of Minnesota,,,,,Minneapolis,MN,,USA
1943,University of Minnesota at Twin-Cities,,,,,Minneapolis,MN,,
3580,University of Modena,,,,,,,,Italy
7648,University of Mons-Hainaut,Mons,,,,,,,Belgium
3923,University of Munchen,,,,,,,,
3460,University of Munich,,,,,,,,
4163,University of Munich,,,,,,,,Germany
6963,University of Munich,Institute for Computer Science,,,,,,,
1808,University of Munich,Institute for Computer Science,,,,Munich,,,Germany
4095,University of Munich,,,,,Munich,,,Germany
2338,University of Nantes,,,,,,,,France
5146,University of Nantes - LINA,,,,,Nantes,,,France
3631,University of New South Wales,,,,,,,,
37,University of New South Wales,,,,,,,,Australia
5117,University of New South Wales,,,,,Sydney,,,Australia
2138,University of New South Wales,,,,,Sydney,NSW,,Australia
7629,University of North Carolina,Greensboro,,,,,,,
4030,University of North Carolina at Chapel Hill,,,,,,,,
4723,University of North Carolina at Chapel Hill,Chapel Hill,,,,,NC,,
5594,University of North Carolina at Chapel Hill,Chapel Hill,,,,,NC,,USA
1529,University of NSW,,,,,Sydney,,,Australia
3654,University of Oklahoma,,,,,,,,
431,University of Ottawa,,,,,Ottawa,,,Canada
2959,University of Ottawa,,,,,Ottawa,Ontario,,Canada
3007,University of Oxford,,,,,,,,
6385,University of Oxford,,,,,Oxford,,,United Kingdom
3892,University of Paris 6,,,,,,,,
3965,University of Paris 6,,,,,,,,France
3819,University of Passau,,,,,,,,
193,University of Patras,Rio,,,,,,,Greece
933,University of Pennsylvania,,,,,,,,
2663,University of Pennsylvania,,,,,Philadelphia,,,
119,University of Pennsylvania,,,,,Philadelphia,PA,,
5569,University of Pennsylvania,,,,,Philadelphia,PA,,USA
7996,University of Pennsylvania,,,,,Philadelphia,PA,,
8671,University of Pennsylvania,,,,,Philadelphia,,,USA
424,University of Pittsburgh,,,,,Pittsburgh,PA,,
6245,University of Pittsburgh,,,,,Pittsburgh,PA,,USA
8320,University of Queensland,,,,,,,,Australia
1532,University of Queensland,,,,,Brisbane,,,Australia
5268,University of Roma,,,,,Roma,,,Italy
3925,University of Roma Tre,,,,,,,,
1253,University of Saarland,,,,,Saarbruecken,,,Germany
9135,University of South Australia,,,,,,,,
1577,University of South Australia,,,,,Adelaide,,,Australia
8042,University of South Australia,,,,,Adelaide,SA,,Australia
3444,University of South Florida,,,,,,,,
3302,University of Southern California,,,,,Los Angeles,CA,,
3740,University of Southern California,,,,,Los Angeles,CA,,USA
4675,University of Southern California,,,,,Los Angeles,California,,
5580,University of Southern California,,,,,Los Angeles,,,USA
3739,University of Southern California,,,,,Marina del Rey,CA,,USA
4430,University of Southern California,,,,,Los Angeles,CA,,
1444,University of Stuttgart,Department of Computer Science,Electrical Engineering and Information Technology,,,Stuttgart,,,Germany
1647,University of Stuttgart,Institute of Parallel and Distributed Systems,,,,Stuttgart,,,Germany
2374,University of Stuttgart,,,,,Stuttgart,,,Germany
2597,University of Sydney,,,,,,,,
3128,University of Sydney,,,,,,,,Australia
369,University of Sydney,,,,,,NSW,,Australia
5737,University of Sydney,,,,,,NSW,2006,Australia
3545,University of Tübingen,,,,,,,,
632,University of Texas,,,,,,,,
9248,University of Texas,,,,,Arlington,,,USA
2249,University of Texas at Arlington,,,,,,,,
4570,University of Texas at Arlington,,,,,Arlington,TX,,
5610,University of Texas at Arlington,,,,,Arlington,TX,,USA
2485,University of Texas at Austin,,,,,,,,
4875,University of Texas at Austin,,,,,Austin,TX,,
8579,University of Texas at Dallas,,,,,Dallas,,,USA
9517,University of Texas at Dallas,Richardson,,,,,TX,,
749,University of Texas at San Antonio,,,,,,,,
253,University of Texas at San Antonio,,,,,San Antonio,TX,,
5541,University of Texas Austin,,,,,Austin,TX,,
7176,University of Texas-Austin,,,,,Austin,TX,,
3429,University of the Saarland,,,,,,,,
7194,University of the Saarland,,,,,Saarbrücken,,D-66041,Germany
7837,University of the Saarland,Department of Computer Science,,P.O.Box 151150,,Saarbruecken,,66041,Germany
1662,University of the Saarland,Department of Computer Science,,,,Saarbruecken,,,Germany
6704,University of the Saarland,,,,,,,,Germany
5627,University of Tokyo,,,,,Tokyo,,,Japan
2343,University of Torino,,,,,Torino,,,Italy
31,University of Toronto,,,,,,,,
240,University of Toronto,,,,,,,,Canada
1759,University of Toronto,Department of Computer Science,,,,,,,
8306,University of Toronto,,,,,,Ont,,Canada
8950,University of Toronto,,,,,Toronto,ON,,Canada
428,University of Toronto,,,,,Toronto,,,Canada
1109,University of Toronto,,,,,Toronto,ON,,
9056,University of Toronto,,,,,Toronto,ON,,Canada
34,University of Toronto,,,,,Toronto,ON,,Canada
8479,University of Toronto,Ont.,,,,Toronto,,,Canada
8532,University of Toronto,,,,,Toronto,Ontario,,
20,University of Toronto,,,,,Toronto,Ontario,,Canada
2917,University of Trento,,,,,,,,
2088,University of Trento,DIT,,,,,,,Italy
430,University of Trento,Trento,,,,,,,Italy
6196,University of Twente,Enschede,,,,,,,Netherlands
3718,University of Twente,Enschede,,,,,,,The Netherlands
1454,University of Twente,Faculty of EEMCS,,,,Enschede,AE,,The Netherlands
172,University of Twente,,,,,,,,The Netherlands
30,University of Utah,,,,,,,,
5945,University of Utah,,,,,Salt Lake City,UT,,USA
9083,University of Utah Salt Lake City,UT,,,,,,,
265,University of Vermont,,,,,,,,
8259,University of Vermont,,,,,Burlington,VT,,
6377,University of Vermont,,,,,Burlington,VT,,USA
7845,University of Versailles,PRiSM Laboratory,,,,Versailles,,,France
1465,University of Washington,,,,,,,,
7858,University of Washington,Department of Computer Science and Engineering,,Box 352350 Seattle,,,WA,98195,USA
130,University of Washington,,,,,Seattle,,,
8584,University of Washington,,,,,Seattle,,,USA
242,University of Washington,,,,,Seattle,WA,,
7674,University of Washington,,,,,Seattle,WA,98195,USA
7675,University of Washington,,,,,Seattle,WA,98195,USA
5732,University of Washington,,,,,Seattle,WA,,USA
107,University of Waterloo,,,,,,,,
2851,University of Waterloo,,,,,,,,Canada
8274,University of Waterloo,,,,,,Ontario,,Canada
3243,University of Waterloo,,,,,Waterloo,,,Canada
81,University of Waterloo,,,,,Waterloo,ON,,Canada
2149,University of Waterloo,,,,,Waterloo,Ontario,,Canada
2416,University of Wisconsi,,,,,Madison,WI,,
127,University of Wisconsin,,,,,,,,
287,University of Wisconsin,,,,,Madison,,,
4018,University of Wisconsin,,,,,Madison,WI,,
89,University of Wisconsin,,,,,Madison,WI,,
5818,University of Wisconsin,,,,,Madison,WI,,USA
2205,University of Wisconsin - Madison,,,,,,,,
4088,University of Wisconsin - Madison,,,,,Madison,WI,,
2422,University of Wisconsin -- Madison,,,,,,,,
3200,University of Wisconsin at Madison,,,,,,,,
567,University of Wisconsin at Madison,,,,,Madison,WI,,
1076,University of Wisconsin-Madison,,,,,,,,
1391,University of Wisconsin-Madison,Department of Computer Sciences,,,,Madison,WI,,
1369,University of Wisconsin-Madison,,,,,Madison,WI,,
6060,University of Wisconsin-Madison,,,,,Madison,WI,,USA
6371,University of Zürich,UNK,,,,Zürich,,,Switzerland
5026,University of Zurich,,,,,,,,
9169,University of Zurich,,,,,Zurich,,,Switzerland
7847,University Paris 6,LIP6 Laboratory,,,,Paris,,,France
6307,USC,,,,,Los Angeles,CA,,USA
4002,USC Information Sciences Institute,,,,,Marina del Rey,CA,,
3566,UW Madison,,,,,,,,
2347,UWash,,,,,,,,
9638,UWisc,,,,,,,,
2289,UW-Madison,,,,,,,,
3882,Verity Inc,,,,,,,,
1874,Verity Inc.,,,,,Sunnyvale,,,
6941,Verizon Communication,,,40 Sylvan Road,,Waltham,MA,,
3805,Virginia Tech,,,,,,,,
8047,Westfälische Wilhelms-Universität Mänster,,,,,Mänster,,48149,Germany
7078,Wichita State University,,,,,Wichita,KS,,
5811,Wichita State University,,,,,Wichita,KS,,USA
8443,wisc.edu,,,,,,,,
4850,Worcester Polytechnic Institut,,,,,,,,
3238,Worcester Polytechnic Institute,,,,,,,,
78,Worcester Polytechnic Institute,,,,,Worcester,MA,,
6346,Worcester Polytechnic Institute,,,,,Worcester,MA,,USA
4852,WPI,,,,,,,,
1043,Wright State University,,,,,,,,
8252,Wright State University,,,,,Dayton,Ohio,,
7724,Xerox Research Center Europe,Grenoble Laboratory. 6,chemin de Maupertuis,,,Meylan,,38240,France
4967,Xerox Research Centre,,,,,,,,France
3761,Xyleme,,,,,,,,
6859,Xyleme S.A.,,,6 rue Émile Verhaeren,,St.Cloud,,92210,France
5592,Yahoo!,,,,,Bangalore,,,India
9566,Yahoo!,Inc.,,,,,,,
5392,Yahoo!,,,,,Sunnyvale,CA,,
6272,Yahoo!,,,,,Sunnyvale,CA,,USA
5499,Yahoo! Inc,,,,,Santa Clara,CA,,
629,Yahoo! Inc.,,,,,Sunnyvale,CA,,
9261,Yahoo! Inc.,,,,,Sunnyvale,,94089,USA
3204,Yahoo! Labs,,,,,,,,
5654,Yahoo! Labs,,,,,Bangalore,,,India
614,Yahoo! Research,,,,,,,,
6104,Yahoo! Research,,,,,Bangalore,,,India
5225,Yahoo! Research,,,,,Berkeley,CA,,
5174,Yahoo! Research,,,,,,CA,,
6024,Yahoo! Research,,,,,New York,NY,,USA
9266,Yahoo! Research,,,,,,New York,10018,USA
2519,Yahoo! Research,,,,,Santa Clara,CA,,
5746,Yahoo! Research,,,,,Santa Clara,CA,,USA
9257,Yahoo! Research,,,,,Santa Clara,,95054,USA
9077,Yahoo! Research,,,,,Sunnyvale,CA,,
9316,Yahoo! Research,,,,,Sunnyvale,,,USA
8639,Yahoo&excl; Research,,,,,,,,
8856,Yahoo&excl; Research,,,,,Sunnyvale,CA,,
2954,Yale University,,,,,,,,
8484,Yale University,,,,,New Haven,CT,,
5802,Yale University,,,,,New Haven,CT,,USA
9272,Yale University,,,,,New Haven,,,USA
4201,York University,,,,,,,,
6902,York University,,,4700 Keele Street,,Toronto,Ontario,M3J 1P3,Canada
8434,York University,,,,,,,,Canada
8949,York University,,,,,Toronto,ON,,Canada
63,York University,,,,,Toronto,ON,,Canada
5677,Zhejiang University,,,,,,,,China
9735,Zhejiang University,,,,,Hangzhou,,,China
543,,,,,,Berkeley,,,
8910,,,,,,Haifa,,,Israel
542,,,,,,Stanford,,,
545,,,,,,,Virginia,,
